,lga_id,lga_name,postal_town,postal_postcode,address_postcode
0,681,Wellington (S),ALBERTON,3971,3971
1,673,Warrnambool (C),ALLANSFORD,3277,3277
2,599,Pyrenees (S),AVOCA,3467,3467
3,643,Strathbogie (S),AVENEL,3664,3664
4,421,Manningham (C),WARRANDYTE,3113,3113
5,275,Greater Geelong (C),BELMONT,3216,3216
6,515,Moorabool (S),Bacchus Marsh,3340,3340
7,57,Ballarat (C),BALLARAT,3350,3350
8,717,Wodonga (C),WODONGA,3689,3690
9,161,Casey (C),Berwick,3806,3806
10,599,Pyrenees (S),BEAUFORT,3373,3373
11,91,Bayside (C),CHELTENHAM,3192,3192
12,549,Moyne (S),CUDGEE,3265,3265
13,311,Hobsons Bay (C),NEWPORT,3015,3015
14,626,Southern Grampians (S),CAVENDISH,3314,3314
15,175,Colac-Otway (S),COLAC,3250,3250
16,543,Mount Alexander (S),CASTLEMAINE,3450,3450
17,543,Mount Alexander (S),CAMPBELLS CREEK,3451,3451
18,291,Hepburn (S),CRESWICK,3363,3363
19,262,Greater Bendigo (C),CALIFORNIA GULLY,3556,3556
20,571,Nillumbik (S),ST ANDREWS,3761,3761
21,673,Warrnambool (C),WARRNAMBOOL,3280,3280
22,534,Mornington Peninsula (S),DROMANA,3936,3936
23,421,Manningham (C),"Westfield, Doncaster",3108,3108
24,137,Campaspe (S),ECHUCA,3564,3564
25,571,Nillumbik (S),ELTHAM,3095,3095
26,262,Greater Bendigo (C),EAGLEHAWK,3556,3556
27,543,Mount Alexander (S),ELPHINSTONE,3448,3448
28,161,Casey (C),HALLAM,3803,3803
29,506,Moonee Valley (C),FLEMINGTON,3031,3031
30,433,Maribyrnong (C),WEST FOOTSCRAY,3012,3011
31,413,Macedon Ranges (S),GISBORNE,3437,3437
32,91,Bayside (C),SANDRINGHAM,3191,3191
33,11,Alpine (S),BRIGHT,3741,3744
34,275,Greater Geelong (C),GROVEDALE,3216,3216
35,111,Boroondara (C),HAWTHORN,3122,3122
36,66,Banyule (C),HEIDELBERG,3084,3084
37,626,Southern Grampians (S),HAMILTON,3300,3300
38,262,Greater Bendigo (C),HEATHCOTE,3523,3523
39,275,Greater Geelong (C),HIGHTON,3216,3216
40,262,Greater Bendigo (C),HUNTLY,3551,3551
41,649,Surf Coast (S),BELLBRAE,3228,3228
42,335,Indigo (S),CHILTERN,3683,3683
43,413,Macedon Ranges (S),KYNETON,3444,3444
44,413,Macedon Ranges (S),ROMSEY,3434,3434
45,249,Golden Plains (S),SHELFORD,3329,3329
46,262,Greater Bendigo (C),LOCKWOOD SOUTH,3551,3551
47,262,Greater Bendigo (C),MARONG,3515,3515
48,413,Macedon Ranges (S),MOUNT MACEDON,3441,3441
49,57,Ballarat (C),MOUNT CLEAR,3350,3350
50,465,Melton (C),MELTON,3337,3337
51,735,Yarra (C),FITZROY,3065,3065
52,543,Mount Alexander (S),NEWSTEAD,3462,3462
53,291,Hepburn (S),NEWLYN,3364,3364
54,698,Whitehorse (C),GLEN WAVERLEY,3150,3151
55,413,Macedon Ranges (S),NEW GISBORNE,3438,3438
56,175,Colac-Otway (S),BEEAC,3251,3251
57,506,Moonee Valley (C),ESSENDON,3040,3040
58,525,Moreland (C),COBURG,3058,3058
59,626,Southern Grampians (S),PENSHURST,3289,3289
60,515,Moorabool (S),MYRNIONG,3341,3341
61,707,Whittlesea (C),MERNDA,3754,3754
62,241,Glenelg (S),PORTLAND,3305,3305
63,581,Northern Grampians (S),STAWELL,3380,3380
64,335,Indigo (S),RUTHERGLEN,3685,3685
65,413,Macedon Ranges (S),RIDDELLS CREEK,3431,3431
66,249,Golden Plains (S),ROKEWOOD,3330,3330
67,275,Greater Geelong (C),GEELONG EAST,3219,3219
68,681,Wellington (S),SALE,3850,3850
69,183,Corangamite (S),SKIPTON,3361,3361
70,460,Melbourne (C),SOUTH YARRA,3141,3141
71,681,Wellington (S),STRATFORD,3862,3862
72,543,Mount Alexander (S),TARADALE,3447,3447
73,549,Moyne (S),KOROIT,3282,3282
74,413,Macedon Ranges (S),TYLDEN,3444,3444
75,707,Whittlesea (C),THOMASTOWN,3074,3074
76,670,Wangaratta (RC),WANGARATTA,3676,3677
77,335,Indigo (S),WAHGUNYAH,3687,3687
78,413,Macedon Ranges (S),WOODEND,3442,3442
79,673,Warrnambool (C),WOODFORD,3281,3281
80,726,Wyndham (C),WERRIBEE,3030,3030
81,543,Mount Alexander (S),CASTLEMAINE,3450,3450
82,335,Indigo (S),Beechworth,3747,3747
83,485,Mitchell (S),WALLAN,3756,3756
84,549,Moyne (S),WOOLSTHORPE,3276,3276
85,291,Hepburn (S),Yandoit,3461,3461
86,681,Wellington (S),YARRAM,3971,3971
87,57,Ballarat (C),LAKE WENDOUREE,3350,3350
88,562,Murrindindi (S),YEA,3717,3717
89,413,Macedon Ranges (S),LANCEFIELD,3435,3435
90,515,Moorabool (S),COIMADAI,3340,3340
91,175,Colac-Otway (S),BIRREGURRA,3242,3242
92,497,Monash (C),CLAYTON,3168,3168
93,670,Wangaratta (RC),MILAWA,3678,3678
94,262,Greater Bendigo (C),LOCKWOOD,3551,3551
95,167,Central Goldfields (S),BEALIBA,3475,3475
96,211,East Gippsland (S),BAIRNSDALE,3875,3875
97,515,Moorabool (S),GORDON,3345,3345
98,291,Hepburn (S),HEPBURN,3461,3461
99,275,Greater Geelong (C),LARA LAKE,3212,3212
100,681,Wellington (S),ROSEDALE,3847,3847
101,11,Alpine (S),BRIGHT,3741,3741
102,137,Campaspe (S),ROCHESTER,3561,3561
103,26,Ararat (RC),ARARAT,3377,3377
104,425,Mansfield (S),JAMIESON,3723,3723
105,189,Darebin (C),PRESTON,3072,3072
106,211,East Gippsland (S),OMEO,3898,3898
107,11,Alpine (S),HARRIETVILLE,3741,3741
108,343,Kingston (C),Mordialloc,3195,3195
109,745,Yarra Ranges (S),HEALESVILLE,3777,3777
110,26,Ararat (RC),LAKE BOLAC,3351,3351
111,381,Latrobe (C),TOONGABBIE,3856,3856
112,599,Pyrenees (S),WAUBRA,3352,3352
113,581,Northern Grampians (S),GREAT WESTERN,3374,3374
114,681,Wellington (S),MAFFRA,3860,3860
115,101,Benalla (RC),Broken Creek,3673,3673
116,515,Moorabool (S),LAL LAL,3352,3352
117,183,Corangamite (S),COBDEN,3266,3266
118,275,Greater Geelong (C),ST LEONARDS,3223,3223
119,745,Yarra Ranges (S),Lilydale,3140,3140
120,262,Greater Bendigo (C),BENDIGO,3552,3550
121,413,Macedon Ranges (S),DARRAWEIT GUIM,3756,3756
122,249,Golden Plains (S),LINTON,3360,3360
123,57,Ballarat (C),INVERMAY,3352,3352
124,667,Towong (S),MITTA MITTA,3701,3701
125,111,Boroondara (C),CAMBERWELL,3124,3124
126,327,Hume (C),GREENVALE,3059,3059
127,562,Murrindindi (S),ALEXANDRA,3714,3714
128,465,Melton (C),MELTON,3337,3335
129,249,Golden Plains (S),BANNOCKBURN,3331,3331
130,571,Nillumbik (S),DOREEN,3754,3754
131,167,Central Goldfields (S),TALBOT,3371,3371
132,745,Yarra Ranges (S),Yarra Glen,3775,3775
133,26,Ararat (RC),ELMHURST,3469,3469
134,262,Greater Bendigo (C),KANGAROO FLAT,3555,3555
135,327,Hume (C),Westmeadows,3049,3049
136,327,Hume (C),SUNBURY,3429,3429
137,571,Nillumbik (S),DIAMOND CREEK,3089,3089
138,413,Macedon Ranges (S),Woodend,3442,3442
139,262,Greater Bendigo (C),AXEDALE,3551,3551
140,698,Whitehorse (C),VERMONT,3133,3133
141,394,Loddon (S),TARNAGULLA,3551,3551
142,111,Boroondara (C),BALWYN,3103,3103
143,367,Knox (C),SCORESBY,3179,3179
144,167,Central Goldfields (S),CARISBROOK,3464,3464
145,745,Yarra Ranges (S),WANDIN NORTH,3139,3139
146,745,Yarra Ranges (S),Coldstream,3770,3770
147,241,Glenelg (S),DARTMOOR,3304,3304
148,327,Hume (C),MICKLEHAM,3064,3064
149,394,Loddon (S),INGLEWOOD,3517,3517
150,543,Mount Alexander (S),CHEWTON,3451,3451
151,413,Macedon Ranges (S),BOLINDA,3432,3432
152,249,Golden Plains (S),NAPOLEONS,3352,3352
153,111,Boroondara (C),KEW,3101,3101
154,249,Golden Plains (S),HADDON,3351,3351
155,549,Moyne (S),PANMURE,3265,3265
156,534,Mornington Peninsula (S),SORRENTO,3943,3943
157,57,Ballarat (C),ALFREDTON,3350,3350
158,394,Loddon (S),BRIDGEWATER,3516,3516
159,534,Mornington Peninsula (S),HASTINGS,3915,3915
160,335,Indigo (S),YACKANDANDAH,3749,3749
161,643,Strathbogie (S),NAGAMBIE,3608,3608
162,681,Wellington (S),HEYFIELD,3858,3858
163,343,Kingston (C),MOORABBIN,3189,3189
164,425,Mansfield (S),MANSFIELD,3724,3722
165,335,Indigo (S),Indigo Valley,3688,3688
166,681,Wellington (S),BRIAGOLONG,3860,3860
167,211,East Gippsland (S),LINDENOW,3865,3865
168,485,Mitchell (S),BROADFORD,3658,3658
169,283,Greater Shepparton (C),MURCHISON,3610,3610
170,571,Nillumbik (S),PANTON HILL,3759,3759
171,515,Moorabool (S),GLEN PARK,3352,3352
172,581,Northern Grampians (S),CONCONGELLA,3384,3384
173,211,East Gippsland (S),BRUTHEN,3885,3885
174,661,Swan Hill (RC),SWAN HILL,3585,3585
175,11,Alpine (S),POREPUNKAH,3740,3740
176,275,Greater Geelong (C),LEOPOLD,3224,3224
177,249,Golden Plains (S),INVERLEIGH,3321,3321
178,111,Boroondara (C),GLEN IRIS,3146,3146
179,599,Pyrenees (S),TRAWALLA,3373,3373
180,262,Greater Bendigo (C),BENDIGO DC,3554,3550
181,57,Ballarat (C),SEBASTOPOL,3356,3356
182,681,Wellington (S),WOODSIDE,3874,3874
183,183,Corangamite (S),NOORAT,3265,3265
184,590,Port Phillip (C),ALBERT PARK,3206,3206
185,311,Hobsons Bay (C),WILLIAMSTOWN,3016,3016
186,534,Mornington Peninsula (S),RYE,3941,3939
187,608,Queenscliffe (B),QUEENSCLIFF,3225,3225
188,241,Glenelg (S),PORTLAND NORTH,3305,3305
189,167,Central Goldfields (S),TIMOR,3465,3465
190,689,West Wimmera (S),APSLEY,3319,3319
191,262,Greater Bendigo (C),STRATHFIELDSAYE,3551,3551
192,217,Frankston (C),Carrum Downs,3201,3977
193,485,Mitchell (S),TOOBORAC,3522,3522
194,211,East Gippsland (S),Bairnsdale,3875,3875
195,485,Mitchell (S),Wallan,3756,3756
196,735,Yarra (C),CARLTON NORTH,3054,3054
197,543,Mount Alexander (S),MALDON,3463,3463
198,745,Yarra Ranges (S),WOORI YALLOCK,3139,3139
199,26,Ararat (RC),Moyston,3377,3377
200,57,Ballarat (C),BUNINYONG,3357,3357
201,562,Murrindindi (S),MARYSVILLE,3779,3779
202,543,Mount Alexander (S),LANGLEY,3444,3444
203,485,Mitchell (S),WANDONG,3758,3758
204,74,Bass Coast (S),COWES,3922,3922
205,291,Hepburn (S),BULLARTO,3461,3461
206,183,Corangamite (S),LISMORE,3324,3324
207,66,Banyule (C),LOWER PLENTY,3093,3093
208,262,Greater Bendigo (C),GOLDEN SQUARE,3555,3555
209,241,Glenelg (S),BOLWARRA,3305,3305
210,581,Northern Grampians (S),NAVARRE,3384,3384
211,763,Yarriambiack (S),WARRACKNABEAL,3393,3393
212,670,Wangaratta (RC),MOYHU,3732,3732
213,599,Pyrenees (S),NATTE YALLOCK,3465,3465
214,735,Yarra (C),CLIFTON HILL,3068,3068
215,571,Nillumbik (S),CHRISTMAS HILLS,3775,3775
216,667,Towong (S),TALLANGATTA,3700,3700
217,283,Greater Shepparton (C),KIALLA,3631,3631
218,534,Mornington Peninsula (S),MOUNT ELIZA,3930,3930
219,74,Bass Coast (S),San Remo,3925,3925
220,298,Hindmarsh (S),DIMBOOLA,3414,3414
221,670,Wangaratta (RC),WHOROULY,3735,3735
222,425,Mansfield (S),Merrijig,3723,3723
223,249,Golden Plains (S),LETHBRIDGE,3332,3332
224,670,Wangaratta (RC),Oxley,3678,3678
225,189,Darebin (C),NORTHCOTE,3070,3070
226,460,Melbourne (C),NORTH MELBOURNE,3051,3051
227,267,Greater Dandenong (C),DANDENONG,3175,3175
228,413,Macedon Ranges (S),MALMSBURY,3446,3446
229,311,Hobsons Bay (C),WILLIAMSTOWN NORTH,3016,3016
230,225,Gannawarra (S),KERANG,3579,3579
231,83,Baw Baw (S),DROUIN,3818,3818
232,249,Golden Plains (S),MEREDITH,3333,3333
233,670,Wangaratta (RC),EDI UPPER,3678,3678
234,262,Greater Bendigo (C),EAGLEHAWK,3556,3556
235,283,Greater Shepparton (C),MOOROOPNA,3629,3629
236,118,Brimbank (C),CAIRNLEA,3023,3023
237,515,Moorabool (S),BALLAN,3342,3342
238,57,Ballarat (C),BALLARAT,3350,3350
239,283,Greater Shepparton (C),TATURA,3616,3616
240,283,Greater Shepparton (C),TOOLAMBA,3614,3614
241,283,Greater Shepparton (C),TATURA,3616,3616
242,335,Indigo (S),OSBORNES FLAT,3691,3691
243,217,Frankston (C),FRANKSTON,3199,3199
244,127,Buloke (S),DONALD,3480,3480
245,485,Mitchell (S),BEVERIDGE,3753,3753
246,590,Port Phillip (C),ST KILDA,3182,3182
247,249,Golden Plains (S),Cape Clear,3351,3351
248,745,Yarra Ranges (S),WARBURTON,3799,3799
249,485,Mitchell (S),TALLAROOK,3659,3659
250,335,Indigo (S),BARNAWARTHA,3688,3688
251,735,Yarra (C),FITZROY NORTH,3068,3068
252,275,Greater Geelong (C),GEELONG WEST,3218,3218
253,189,Darebin (C),PRESTON,3072,3072
254,161,Casey (C),TOORADIN,3980,3980
255,111,Boroondara (C),HAWTHORN,3122,3122
256,262,Greater Bendigo (C),ELMORE,3558,3558
257,283,Greater Shepparton (C),DOOKIE,3646,3646
258,91,Bayside (C),BRIGHTON,3186,3186
259,319,Horsham (RC),NATIMUK,3409,3409
260,763,Yarriambiack (S),MURTOA,3390,3390
261,262,Greater Bendigo (C),Big Hill,3555,3555
262,291,Hepburn (S),CLUNES,3370,3370
263,581,Northern Grampians (S),MARNOO,3387,3387
264,335,Indigo (S),BEECHWORTH,3747,3747
265,283,Greater Shepparton (C),ARDMONA,3629,3629
266,485,Mitchell (S),KILMORE,3764,3764
267,549,Moyne (S),MACARTHUR,3286,3286
268,275,Greater Geelong (C),BARWON HEADS,3227,3227
269,118,Brimbank (C),KEILOR,3036,3036
270,167,Central Goldfields (S),DUNOLLY,3472,3472
271,670,Wangaratta (RC),SPRINGHURST,3682,3682
272,745,Yarra Ranges (S),DIXONS CREEK,3775,3775
273,291,Hepburn (S),TRENTHAM,3458,3458
274,57,Ballarat (C),WARRENHEIP,3352,3352
275,262,Greater Bendigo (C),MAIDEN GULLY,3551,3551
276,763,Yarriambiack (S),RUPANYUP,3388,3388
277,262,Greater Bendigo (C),GOORNONG,3557,3557
278,497,Monash (C),OAKLEIGH,3166,3166
279,275,Greater Geelong (C),CERES,3221,3221
280,635,Stonnington (C),MALVERN,3144,3144
281,291,Hepburn (S),DAYLESFORD,3460,3460
282,283,Greater Shepparton (C),MOOROOPNA,3629,3629
283,211,East Gippsland (S),SWAN REACH,3903,3903
284,599,Pyrenees (S),AMPHITHEATRE,3468,3468
285,649,Surf Coast (S),DEANS MARSH,3235,3235
286,275,Greater Geelong (C),DRYSDALE,3222,3222
287,581,Northern Grampians (S),St Arnaud,3478,3478
288,549,Moyne (S),NULLAWARRE,3268,3268
289,413,Macedon Ranges (S),MACEDON,3440,3440
290,571,Nillumbik (S),ARTHURS CREEK,3099,3099
291,534,Mornington Peninsula (S),RYE,3941,3941
292,562,Murrindindi (S),Buxton,3711,3711
293,599,Pyrenees (S),MOONAMBEL,3478,3478
294,543,Mount Alexander (S),BARINGHUP,3463,3463
295,681,Wellington (S),Longford,3851,3851
296,161,Casey (C),HARKAWAY,3806,3806
297,534,Mornington Peninsula (S),BALNARRING,3926,3926
298,670,Wangaratta (RC),Londrigan via Wangaratta,3678,3678
299,643,Strathbogie (S),EUROA,3666,3666
300,394,Loddon (S),PYRAMID HILL,3575,3575
301,283,Greater Shepparton (C),SHEPPARTON EAST,3631,3631
302,211,East Gippsland (S),NICHOLSON,3882,3882
303,283,Greater Shepparton (C),KIALLA WEST,3631,3631
304,57,Ballarat (C),MINERS REST,3352,3352
305,670,Wangaratta (RC),GLENROWAN,3675,3675
306,673,Warrnambool (C),WARRNAMBOOL,3280,3280
307,101,Benalla (RC),DEVENISH,3726,3726
308,283,Greater Shepparton (C),UNDERA,3629,3629
309,11,Alpine (S),DEDERANG,3691,3691
310,262,Greater Bendigo (C),"AXE CREEK, via Strathfieldsaye",3551,3551
311,745,Yarra Ranges (S),SILVAN,3795,3795
312,57,Ballarat (C),Wendouree,3355,3355
313,137,Campaspe (S),LANCASTER,3620,3620
314,262,Greater Bendigo (C),RAYWOOD,3570,3570
315,291,Hepburn (S),Drummond,3461,3461
316,485,Mitchell (S),PUCKAPUNYAL,3662,3662
317,599,Pyrenees (S),LANDSBOROUGH,3384,3384
318,367,Knox (C),LYSTERFIELD,3156,3156
319,101,Benalla (RC),WINTON,3673,3673
320,283,Greater Shepparton (C),MERRIGUM,3618,3618
321,667,Towong (S),BETHANGA,3691,3691
322,735,Yarra (C),ABBOTSFORD,3067,3067
323,275,Greater Geelong (C),NEWTOWN,3220,3220
324,635,Stonnington (C),WINDSOR,3181,3181
325,161,Casey (C),NARRE WARREN NORTH,3804,3804
326,211,East Gippsland (S),BUCHAN,3885,3885
327,275,Greater Geelong (C),Anakie,3213,3213
328,275,Greater Geelong (C),MOOLAP,3221,3221
329,433,Maribyrnong (C),Footscray,3011,3011
330,413,Macedon Ranges (S),NEWHAM,3442,3442
331,707,Whittlesea (C),MILL PARK,3082,3082
332,262,Greater Bendigo (C),WHITE HILLS,3550,3550
333,515,Moorabool (S),Mount Egerton,3352,3352
334,83,Baw Baw (S),DROUIN,3818,3818
335,490,Moira (S),WUNGHNU,3635,3635
336,26,Ararat (RC),MAROONA,3377,3377
337,83,Baw Baw (S),JINDIVICK,3818,3818
338,667,Towong (S),TALGARNO,3691,3691
339,515,Moorabool (S),Bungaree,3352,3352
340,726,Wyndham (C),LITTLE RIVER,3211,3211
341,681,Wellington (S),COWWARR,3857,3857
342,707,Whittlesea (C),SOUTH MORANG,3752,3752
343,262,Greater Bendigo (C),BENDIGO,3552,3550
344,485,Mitchell (S),PYALONG,3521,3521
345,649,Surf Coast (S),WINCHELSEA,3241,3241
346,83,Baw Baw (S),BULN BULN,3821,3821
347,57,Ballarat (C),SOLDIERS HILL,3350,3350
348,175,Colac-Otway (S),COLAC,3250,3249
349,534,Mornington Peninsula (S),MORNINGTON,3931,3931
350,626,Southern Grampians (S),HAMILTON,3300,3300
351,57,Ballarat (C),BLOWHARD,3352,3352
352,291,Hepburn (S),CRESWICK,3363,3363
353,57,Ballarat (C),BALLARAT,3350,3350
354,91,Bayside (C),BRIGHTON,3186,3186
355,543,Mount Alexander (S),CASTLEMAINE,3450,3450
356,571,Nillumbik (S),YARRAMBAT,3091,3091
357,101,Benalla (RC),THOONA,3726,3726
358,241,Glenelg (S),CASTERTON,3311,3311
359,490,Moira (S),NATHALIA,3638,3638
360,275,Greater Geelong (C),NEWTOWN,3220,3220
361,66,Banyule (C),GREENSBOROUGH,3088,3088
362,249,Golden Plains (S),TEESDALE,3328,3328
363,161,Casey (C),CRANBOURNE,3977,3977
364,490,Moira (S),Katamatite,3649,3649
365,26,Ararat (RC),BUANGOR,3375,3375
366,225,Gannawarra (S),LEITCHVILLE,3567,3567
367,707,Whittlesea (C),WHITTLESEA,3757,3757
368,57,Ballarat (C),Nerrina,3350,3350
369,57,Ballarat (C),BALLARAT,3350,3350
370,83,Baw Baw (S),WARRAGUL,3820,3820
371,571,Nillumbik (S),KANGAROO GROUND,3097,3097
372,381,Latrobe (C),TRARALGON SOUTH,3844,3844
373,626,Southern Grampians (S),Coleraine,3315,3315
374,225,Gannawarra (S),LAKE CHARM,3581,3581
375,83,Baw Baw (S),RIPPLEBROOK,3818,3818
376,490,Moira (S),NUMURKAH,3636,3636
377,381,Latrobe (C),MOE,3825,3825
378,275,Greater Geelong (C),GEELONG,3220,3220
379,367,Knox (C),BAYSWATER,3153,3153
380,763,Yarriambiack (S),MINYIP,3392,3392
381,497,Monash (C),MULGRAVE,3170,3170
382,83,Baw Baw (S),YARRAGON,3823,3823
383,381,Latrobe (C),TYERS,3844,3844
384,83,Baw Baw (S),TRAFALGAR,3824,3824
385,562,Murrindindi (S),KINGLAKE,3763,3763
386,83,Baw Baw (S),ELLINBANK,3821,3821
387,211,East Gippsland (S),BRUTHEN,3885,3885
388,717,Wodonga (C),BARANDUDA,3691,3691
389,490,Moira (S),TUNGAMAH,3728,3728
390,145,Cardinia (S),BUNYIP,3815,3815
391,137,Campaspe (S),GUNBOWER,3566,3566
392,145,Cardinia (S),NAR NAR GOON,3812,3812
393,617,South Gippsland (S),TOORA,3962,3962
394,745,Yarra Ranges (S),MONTROSE,3765,3765
395,225,Gannawarra (S),KOONDROOK,3580,3580
396,490,Moira (S),KATUNGA,3640,3640
397,57,Ballarat (C),Magpie,3352,3352
398,11,Alpine (S),TAWONGA,3697,3697
399,83,Baw Baw (S),Narracan,3824,3824
400,83,Baw Baw (S),DROUIN,3818,3818
401,667,Towong (S),ESKDALE,3701,3701
402,83,Baw Baw (S),DARNUM,3822,3822
403,534,Mornington Peninsula (S),MOOROODUC,3933,3933
404,367,Knox (C),THE BASIN,3154,3154
405,211,East Gippsland (S),PAYNESVILLE,3880,3880
406,262,Greater Bendigo (C),EPSOM,3551,3551
407,506,Moonee Valley (C),KENSINGTON,3031,3031
408,381,Latrobe (C),HAZELWOOD NORTH,3840,3840
409,617,South Gippsland (S),MIRBOO NORTH,3871,3871
410,381,Latrobe (C),YINNAR,3869,3869
411,83,Baw Baw (S),NEERIM SOUTH,3831,3831
412,66,Banyule (C),IVANHOE,3079,3079
413,275,Greater Geelong (C),PORTARLINGTON,3223,3223
414,745,Yarra Ranges (S),THE PATCH,3792,3159
415,590,Port Phillip (C),ST KILDA,3182,3182
416,83,Baw Baw (S),LABERTOUCHE,3816,3816
417,465,Melton (C),DIGGERS REST,3427,3427
418,83,Baw Baw (S),LONGWARRY,3816,3816
419,145,Cardinia (S),Gembrook,3783,3783
420,681,Wellington (S),WURRUK,3850,3850
421,83,Baw Baw (S),WILLOW GROVE,3825,3825
422,745,Yarra Ranges (S),HODDLES CREEK,3139,3139
423,145,Cardinia (S),BEACONSFIELD UPPER,3808,3808
424,283,Greater Shepparton (C),CONGUPNA,3633,3633
425,262,Greater Bendigo (C),REDESDALE,3444,3444
426,635,Stonnington (C),MALVERN EAST,3145,3145
427,745,Yarra Ranges (S),Launching Place,3139,3139
428,460,Melbourne (C),CARLTON,3053,3053
429,506,Moonee Valley (C),ASCOT VALE,3032,3032
430,381,Latrobe (C),BOOLARRA,3870,3870
431,534,Mornington Peninsula (S),ROSEBUD,3939,3939
432,145,Cardinia (S),KOO WEE RUP,3981,3981
433,635,Stonnington (C),ARMADALE,3143,3143
434,534,Mornington Peninsula (S),MOUNT MARTHA,3934,3934
435,534,Mornington Peninsula (S),SOMERVILLE,3912,3912
436,26,Ararat (RC),WILLAURA,3379,3379
437,137,Campaspe (S),ECHUCA,3564,3564
438,211,East Gippsland (S),LAKES ENTRANCE,3909,3909
439,670,Wangaratta (RC),Myrrhee,3732,3732
440,681,Wellington (S),DEVON NORTH,3971,3971
441,643,Strathbogie (S),LONGWOOD,3665,3665
442,175,Colac-Otway (S),FORREST,3236,3236
443,189,Darebin (C),FAIRFIELD,3078,3078
444,83,Baw Baw (S),NILMA,3821,3821
445,145,Cardinia (S),GARFIELD,3814,3814
446,381,Latrobe (C),YINNAR SOUTH,3869,3869
447,145,Cardinia (S),OFFICER,3809,3809
448,525,Moreland (C),BRUNSWICK EAST,3057,3057
449,211,East Gippsland (S),ORBOST,3888,3888
450,74,Bass Coast (S),INVERLOCH,3996,3996
451,698,Whitehorse (C),SURREY HILLS,3127,3127
452,590,Port Phillip (C),SOUTH MELBOURNE,3205,3205
453,490,Moira (S),STRATHMERTON,3641,3641
454,319,Horsham (RC),LAHARUM,3401,3401
455,667,Towong (S),WALWA,3709,3709
456,590,Port Phillip (C),MIDDLE PARK,3206,3206
457,745,Yarra Ranges (S),SEVILLE,3139,3139
458,433,Maribyrnong (C),YARRAVILLE,3013,3013
459,525,Moreland (C),MORELAND,3058,3058
460,83,Baw Baw (S),TANJIL SOUTH,3825,3825
461,26,Ararat (RC),POMONAL,3381,3381
462,91,Bayside (C),BRIGHTON,3186,3186
463,381,Latrobe (C),GLENGARRY,3854,3854
464,231,Glen Eira (C),CARNEGIE,3163,3163
465,145,Cardinia (S),LANG LANG,3984,3984
466,441,Maroondah (C),CROYDON,3136,3136
467,506,Moonee Valley (C),MOONEE PONDS,3039,3039
468,698,Whitehorse (C),MITCHAM,3132,3132
469,617,South Gippsland (S),LOCH,3945,3945
470,478,Mildura (RC),MILDURA,3500,3500
471,698,Whitehorse (C),BLACKBURN,3130,3130
472,211,East Gippsland (S),Newmerella,3888,3886
473,590,Port Phillip (C),PORT MELBOURNE,3207,3207
474,111,Boroondara (C),HAWTHORN EAST,3123,3123
475,343,Kingston (C),MENTONE,3194,3194
476,735,Yarra (C),CARLTON NORTH,3054,3054
477,745,Yarra Ranges (S),COLDSTREAM,3770,3770
478,571,Nillumbik (S),RESEARCH,3095,3095
479,161,Casey (C),PEARCEDALE,3912,3912
480,211,East Gippsland (S),Lindenow South,3875,3875
481,83,Baw Baw (S),THORPDALE,3835,3835
482,118,Brimbank (C),ST ALBANS,3021,3021
483,617,South Gippsland (S),LEONGATHA,3953,3953
484,298,Hindmarsh (S),JEPARIT,3423,3423
485,635,Stonnington (C),TOORAK,3142,3142
486,534,Mornington Peninsula (S),BAXTER,3911,3911
487,617,South Gippsland (S),Fish Creek,3959,3959
488,145,Cardinia (S),BEACONSFIELD,3807,3807
489,211,East Gippsland (S),METUNG,3904,3904
490,74,Bass Coast (S),Newhaven,3925,3925
491,581,Northern Grampians (S),HALLS GAP,3381,3381
492,283,Greater Shepparton (C),TALLYGAROOPNA,3634,3634
493,231,Glen Eira (C),BENTLEIGH,3204,3204
494,617,South Gippsland (S),KORUMBURRA,3950,3950
495,534,Mornington Peninsula (S),CRIB POINT,3919,3919
496,525,Moreland (C),PASCOE VALE,3044,3044
497,562,Murrindindi (S),FLOWERDALE,3717,3717
498,275,Greater Geelong (C),OCEAN GROVE,3226,3226
499,763,Yarriambiack (S),BEULAH,3395,3395
500,735,Yarra (C),FITZROY NORTH,3068,3068
501,118,Brimbank (C),SUNSHINE,3020,3020
502,534,Mornington Peninsula (S),TYABB,3913,3913
503,189,Darebin (C),THORNBURY,3071,3071
504,335,Indigo (S),HUON,3695,3695
505,735,Yarra (C),CLIFTON HILL,3068,3068
506,111,Boroondara (C),Kew East,3102,3102
507,478,Mildura (RC),NICHOLS POINT,3501,3501
508,478,Mildura (RC),IRYMPLE,3498,3498
509,525,Moreland (C),BRUNSWICK EAST,3057,3057
510,211,East Gippsland (S),EAGLE POINT,3878,3878
511,745,Yarra Ranges (S),Yarra Junction,3797,3797
512,745,Yarra Ranges (S),Sassafras,3787,3787
513,745,Yarra Ranges (S),Ferny Creek,3786,3786
514,562,Murrindindi (S),TOOLANGI,3777,3777
515,421,Manningham (C),WONGA PARK,3115,3115
516,562,Murrindindi (S),KINGLAKE WEST,3757,3757
517,939,Unincorporated Vic,CRIB POINT,3919,3921
518,745,Yarra Ranges (S),MONBULK,3793,3793
519,661,Swan Hill (RC),LAKE BOGA,3584,3584
520,745,Yarra Ranges (S),CHUM CREEK,3777,3777
521,745,Yarra Ranges (S),KALORAMA,3766,3767
522,127,Buloke (S),NULLAWIL,3529,3529
523,745,Yarra Ranges (S),HEALESVILLE,3777,3777
524,562,Murrindindi (S),KINGLAKE CENTRAL,3757,3757
525,608,Queenscliffe (B),POINT LONSDALE,3225,3225
526,617,South Gippsland (S),INVERLOCH,3996,3951
527,343,Kingston (C),CLARINDA,3169,3169
528,343,Kingston (C),CHELSEA HEIGHTS,3196,3196
529,275,Greater Geelong (C),WALLINGTON,3222,3222
530,745,Yarra Ranges (S),TECOMA,3160,3160
531,649,Surf Coast (S),TORQUAY,3228,3228
532,211,East Gippsland (S),NOORINBEE,3890,3890
533,763,Yarriambiack (S),Woomelang,3485,3485
534,145,Cardinia (S),Emerald,3782,3782
535,343,Kingston (C),SEAFORD,3198,3197
536,617,South Gippsland (S),NYORA,3987,3987
537,465,Melton (C),EXFORD,3338,3338
538,661,Swan Hill (RC),ULTIMA,3544,3544
539,497,Monash (C),MOUNT WAVERLEY,3149,3149
540,211,East Gippsland (S),MARLO,3888,3888
541,231,Glen Eira (C),MURRUMBEENA,3163,3163
542,745,Yarra Ranges (S),YARRA JUNCTION,3797,3799
543,478,Mildura (RC),KOORLONG,3501,3501
544,441,Maroondah (C),Warranwood,3134,3134
545,485,Mitchell (S),WILLOWMAVIN,3764,3764
546,745,Yarra Ranges (S),Olinda,3788,3788
547,175,Colac-Otway (S),CARLISLE RIVER,3239,3239
548,262,Greater Bendigo (C),STRATHDALE,3550,3550
549,211,East Gippsland (S),MALLACOOTA,3892,3892
550,217,Frankston (C),LANGWARRIN,3910,3910
551,145,Cardinia (S),Cockatoo,3781,3781
552,534,Mornington Peninsula (S),TYABB,3913,3913
553,745,Yarra Ranges (S),BELGRAVE SOUTH,3160,3160
554,189,Darebin (C),NORTHLAND CENTRE,3072,3072
555,118,Brimbank (C),SYDENHAM,3037,3037
556,111,Boroondara (C),CANTERBURY,3126,3126
557,478,Mildura (RC),CABARITA,3505,3505
558,381,Latrobe (C),TRARALGON,3844,3844
559,525,Moreland (C),BRUNSWICK WEST,3055,3055
560,525,Moreland (C),FAWKNER,3060,3060
561,735,Yarra (C),ALPHINGTON,3078,3078
562,66,Banyule (C),HEIDELBERG,3084,3084
563,83,Baw Baw (S),BONA VISTA,3820,3820
564,217,Frankston (C),CARRUM DOWNS,3201,3201
565,707,Whittlesea (C),BUNDOORA,3083,3083
566,745,Yarra Ranges (S),Macclesfield,3782,3782
567,91,Bayside (C),BLACK ROCK,3193,3193
568,745,Yarra Ranges (S),MOUNT EVELYN,3796,3796
569,745,Yarra Ranges (S),KILSYTH,3137,3137
570,74,Bass Coast (S),WONTHAGGI,3995,3995
571,311,Hobsons Bay (C),Spotswood,3015,3015
572,161,Casey (C),CLYDE,3978,3978
573,267,Greater Dandenong (C),NOBLE PARK,3174,3174
574,111,Boroondara (C),DEEPDENE,3103,3103
575,211,East Gippsland (S),Clifton Creek,3875,3875
576,262,Greater Bendigo (C),STRATHDALE,3550,3550
577,145,Cardinia (S),CARDINIA,3978,3978
578,283,Greater Shepparton (C),GRAHAMVALE,3631,3631
579,478,Mildura (RC),IRYMPLE,3498,3498
580,231,Glen Eira (C),GLEN HUNTLY,3163,3163
581,137,Campaspe (S),NANNEELLA,3561,3561
582,367,Knox (C),WANTIRNA,3152,3152
583,74,Bass Coast (S),WONTHAGGI,3995,3995
584,465,Melton (C),MELTON SOUTH,3338,3338
585,343,Kingston (C),CHELSEA,3196,3196
586,343,Kingston (C),Parkdale,3195,3195
587,211,East Gippsland (S),NOWA NOWA,3887,3887
588,91,Bayside (C),Hampton,3188,3188
589,460,Melbourne (C),"St Kilda Rd Central, MELBOURNE",8008,3004
590,515,Moorabool (S),BALLIANG EAST,3340,3340
591,343,Kingston (C),EDITHVALE,3196,3196
592,283,Greater Shepparton (C),ORRVALE,3631,3631
593,189,Darebin (C),THORNBURY,3071,3071
594,478,Mildura (RC),UNDERBOOL,3509,3509
595,231,Glen Eira (C),CAULFIELD NORTH,3161,3161
596,217,Frankston (C),SEAFORD,3198,3198
597,698,Whitehorse (C),BURWOOD,3125,3125
598,225,Gannawarra (S),MURRABIT,3579,3579
599,189,Darebin (C),PRESTON,3072,3072
600,189,Darebin (C),THORNBURY,3071,3071
601,433,Maribyrnong (C),WEST FOOTSCRAY,3012,3012
602,745,Yarra Ranges (S),WANDIN NORTH,3139,3139
603,91,Bayside (C),BRIGHTON EAST,3187,3187
604,91,Bayside (C),Cromer,3193,3193
605,283,Greater Shepparton (C),Dookie Campus,3647,3647
606,211,East Gippsland (S),CANN RIVER,3890,3890
607,311,Hobsons Bay (C),ALTONA,3018,3018
608,161,Casey (C),DEVON MEADOWS,3977,3977
609,367,Knox (C),UPPER FERNTREE GULLY,3156,3156
610,562,Murrindindi (S),EILDON,3713,3713
611,534,Mornington Peninsula (S),BITTERN,3918,3918
612,137,Campaspe (S),COLBINABBIN,3559,3559
613,137,Campaspe (S),STANHOPE,3623,3623
614,571,Nillumbik (S),HURSTBRIDGE,3099,3099
615,525,Moreland (C),COBURG,3058,3058
616,590,Port Phillip (C),ELWOOD,3184,3184
617,698,Whitehorse (C),MONT ALBERT,3127,3127
618,283,Greater Shepparton (C),DHURRINGILE,3610,3610
619,571,Nillumbik (S),Strathewen,3099,3099
620,745,Yarra Ranges (S),DON VALLEY,3139,3139
621,189,Darebin (C),RESERVOIR,3073,3073
622,381,Latrobe (C),YALLOURN NORTH,3825,3825
623,211,East Gippsland (S),LAKES ENTRANCE,3909,3909
624,137,Campaspe (S),GIRGARRE,3624,3624
625,763,Yarriambiack (S),YAAPEET,3424,3424
626,745,Yarra Ranges (S),GLADYSDALE,3797,3797
627,478,Mildura (RC),MILDURA,3500,3500
628,506,Moonee Valley (C),Moonee Ponds,3039,3039
629,433,Maribyrnong (C),YARRAVILLE,3013,3013
630,745,Yarra Ranges (S),Kallista,3791,3791
631,506,Moonee Valley (C),Essendon North,3041,3041
632,506,Moonee Valley (C),Ascot Vale,3032,3032
633,111,Boroondara (C),CAMBERWELL,3124,3124
634,478,Mildura (RC),RED CLIFFS,3496,3496
635,571,Nillumbik (S),DIAMOND CREEK,3089,3096
636,161,Casey (C),HAMPTON PARK,3976,3976
637,175,Colac-Otway (S),Colac,3250,3250
638,231,Glen Eira (C),ST KILDA EAST,3183,3183
639,83,Baw Baw (S),NOOJEE,3833,3833
640,66,Banyule (C),MONTMORENCY,3094,3094
641,649,Surf Coast (S),MORIAC,3240,3240
642,441,Maroondah (C),RINGWOOD NORTH,3134,3134
643,478,Mildura (RC),RED CLIFFS,3496,3496
644,635,Stonnington (C),MALVERN EAST,3145,3145
645,441,Maroondah (C),BAYSWATER,3153,3153
646,525,Moreland (C),Pascoe Vale,3044,3044
647,726,Wyndham (C),POINT COOK,3030,3030
648,433,Maribyrnong (C),WEST FOOTSCRAY,3012,3011
649,681,Wellington (S),AIRLY,3851,3851
650,111,Boroondara (C),GLEN IRIS,3146,3146
651,343,Kingston (C),PARKDALE,3195,3195
652,497,Monash (C),HUGHESDALE,3166,3166
653,189,Darebin (C),NORTHCOTE,3070,3070
654,111,Boroondara (C),HAWTHORN EAST,3123,3123
655,343,Kingston (C),Aspendale,3195,3195
656,571,Nillumbik (S),ELTHAM NORTH,3095,3095
657,673,Warrnambool (C),WARRNAMBOOL,3280,3280
658,267,Greater Dandenong (C),DANDENONG,3175,3175
659,441,Maroondah (C),CROYDON,3136,3136
660,506,Moonee Valley (C),Essendon,3040,3040
661,275,Greater Geelong (C),MANIFOLD HEIGHTS,3218,3218
662,211,East Gippsland (S),NUNGURNER,3909,3909
663,343,Kingston (C),DINGLEY VILLAGE,3172,3172
664,478,Mildura (RC),CARDROSS,3496,3496
665,118,Brimbank (C),ALBION,3020,3020
666,283,Greater Shepparton (C),LEMNOS,3631,3631
667,617,South Gippsland (S),TARWIN LOWER,3956,3956
668,217,Frankston (C),SEAFORD,3198,3198
669,525,Moreland (C),BRUNSWICK WEST,3055,3055
670,189,Darebin (C),PRESTON,3072,3072
671,111,Boroondara (C),SURREY HILLS,3127,3127
672,231,Glen Eira (C),CAULFIELD SOUTH,3162,3162
673,111,Boroondara (C),ASHBURTON,3147,3147
674,231,Glen Eira (C),BENTLEIGH,3204,3204
675,681,Wellington (S),SEASPRAY,3851,3851
676,649,Surf Coast (S),ANGLESEA,3230,3230
677,66,Banyule (C),BRIAR HILL,3088,3088
678,283,Greater Shepparton (C),ZEERUST,3634,3634
679,231,Glen Eira (C),ORMOND,3204,3204
680,343,Kingston (C),CLAYTON SOUTH,3169,3169
681,66,Banyule (C),IVANHOE EAST,3079,3079
682,681,Wellington (S),COBAINS,3851,3851
683,478,Mildura (RC),MILDURA SOUTH,3501,3501
684,275,Greater Geelong (C),GEELONG EAST,3219,3219
685,525,Moreland (C),BRUNSWICK WEST,3055,3055
686,283,Greater Shepparton (C),KATANDRA WEST,3634,3634
687,161,Casey (C),NARRE WARREN,3805,3805
688,91,Bayside (C),SANDRINGHAM,3191,3191
689,311,Hobsons Bay (C),ALTONA,3018,3018
690,534,Mornington Peninsula (S),SOMERS,3927,3927
691,506,Moonee Valley (C),TRAVANCORE,3032,3032
692,745,Yarra Ranges (S),UPWEY,3158,3158
693,525,Moreland (C),Pascoe Vale South,3044,3058
694,66,Banyule (C),ROSANNA,3084,3084
695,367,Knox (C),WANTIRNA SOUTH,3152,3152
696,506,Moonee Valley (C),STRATHMORE,3041,3041
697,111,Boroondara (C),BALWYN NORTH,3104,3104
698,111,Boroondara (C),ASHBURTON,3147,3147
699,670,Wangaratta (RC),WANGARATTA,3676,3677
700,11,Alpine (S),MOUNT BEAUTY,3699,3699
701,189,Darebin (C),East Coburg,3058,3072
702,534,Mornington Peninsula (S),SOMERS,3927,3927
703,381,Latrobe (C),NEWBOROUGH,3825,3825
704,381,Latrobe (C),TRARALGON,3844,3844
705,283,Greater Shepparton (C),SHEPPARTON,3632,3630
706,534,Mornington Peninsula (S),RYE,3941,3941
707,381,Latrobe (C),MOE,3825,3825
708,275,Greater Geelong (C),BELMONT,3216,3216
709,311,Hobsons Bay (C),NEWPORT,3015,3015
710,283,Greater Shepparton (C),SHEPPARTON,3630,3630
711,635,Stonnington (C),MALVERN EAST,3145,3145
712,381,Latrobe (C),NEWBOROUGH,3825,3825
713,111,Boroondara (C),BALWYN,3103,3103
714,189,Darebin (C),NORTHCOTE,3070,3070
715,275,Greater Geelong (C),HAMLYN HEIGHTS,3218,3218
716,217,Frankston (C),KARINGAL CENTRE,3199,3199
717,745,Yarra Ranges (S),Selby,3159,3159
718,189,Darebin (C),RESERVOIR,3073,3073
719,231,Glen Eira (C),MOORABBIN,3189,3204
720,490,Moira (S),KATUNGA,3640,3640
721,57,Ballarat (C),BALLARAT NORTH,3350,3350
722,717,Wodonga (C),BANDIANA MILPO,3694,3694
723,111,Boroondara (C),BALWYN NORTH,3104,3104
724,83,Baw Baw (S),WARRAGUL,3820,3820
725,319,Horsham (RC),HORSHAM,3402,3400
726,381,Latrobe (C),TRARALGON,3844,3844
727,381,Latrobe (C),TRARALGON,3844,3844
728,441,Maroondah (C),RINGWOOD EAST,3135,3135
729,525,Moreland (C),Pascoe Vale South,3044,3044
730,707,Whittlesea (C),LALOR,3075,3075
731,189,Darebin (C),RESERVOIR,3073,3073
732,231,Glen Eira (C),BENTLEIGH EAST,3165,3165
733,698,Whitehorse (C),BLACKBURN NORTH,3130,3130
734,497,Monash (C),OAKLEIGH SOUTH,3167,3167
735,698,Whitehorse (C),BOX HILL NORTH,3129,3129
736,367,Knox (C),FERNTREE GULLY,3156,3156
737,26,Ararat (RC),ARARAT,3377,3377
738,525,Moreland (C),Oak Park,3046,3046
739,267,Greater Dandenong (C),DANDENONG,3175,3175
740,211,East Gippsland (S),BAIRNSDALE,3875,3875
741,262,Greater Bendigo (C),Bendigo DC,3554,3550
742,267,Greater Dandenong (C),NOBLE PARK,3174,3174
743,525,Moreland (C),PASCOE VALE,3044,3044
744,111,Boroondara (C),BALWYN NORTH,3104,3104
745,275,Greater Geelong (C),BELMONT,3216,3216
746,381,Latrobe (C),MOE,3825,3825
747,118,Brimbank (C),ST ALBANS,3021,3021
748,283,Greater Shepparton (C),SHEPPARTON,3632,3630
749,661,Swan Hill (RC),SWAN HILL,3585,3585
750,118,Brimbank (C),SUNSHINE,3020,3020
751,118,Brimbank (C),SUNSHINE NORTH,3020,3020
752,66,Banyule (C),ROSANNA,3084,3084
753,241,Glenelg (S),PORTLAND,3305,3305
754,66,Banyule (C),ROSANNA,3084,3084
755,343,Kingston (C),CHELTENHAM,3192,3192
756,161,Casey (C),CRANBOURNE SOUTH,3977,3977
757,670,Wangaratta (RC),WANGARATTA,3676,3677
758,57,Ballarat (C),LAKE GARDENS,3355,3355
759,189,Darebin (C),EAST PRESTON,3072,3072
760,211,East Gippsland (S),ORBOST,3888,3888
761,275,Greater Geelong (C),NORTH GEELONG,3215,3215
762,327,Hume (C),CRAIGIEBURN,3064,3064
763,673,Warrnambool (C),WARRNAMBOOL,3280,3280
764,175,Colac-Otway (S),COLAC,3250,3250
765,626,Southern Grampians (S),HAMILTON,3300,3300
766,231,Glen Eira (C),BENTLEIGH EAST,3165,3165
767,217,Frankston (C),FRANKSTON,3199,3199
768,433,Maribyrnong (C),YARRAVILLE,3013,3013
769,433,Maribyrnong (C),WEST FOOTSCRAY,3012,3019
770,343,Kingston (C),BONBEACH,3196,3196
771,267,Greater Dandenong (C),SPRINGVALE,3171,3171
772,91,Bayside (C),BEAUMARIS,3193,3193
773,275,Greater Geelong (C),HAMLYN HEIGHTS,3215,3215
774,267,Greater Dandenong (C),NOBLE PARK,3174,3174
775,698,Whitehorse (C),BRENTFORD SQUARE,3131,3131
776,525,Moreland (C),GLENROY,3046,3046
777,267,Greater Dandenong (C),DANDENONG,3175,3175
778,118,Brimbank (C),ST ALBANS,3021,3021
779,506,Moonee Valley (C),AVONDALE HEIGHTS,3034,3034
780,421,Manningham (C),DONCASTER EAST,3109,3109
781,717,Wodonga (C),WODONGA,3689,3690
782,217,Frankston (C),FRANKSTON,3199,3199
783,698,Whitehorse (C),KERRIMUIR,3129,3129
784,441,Maroondah (C),HEATHMONT,3135,3135
785,506,Moonee Valley (C),STRATHMORE,3041,3041
786,497,Monash (C),OAKLEIGH SOUTH,3167,3167
787,707,Whittlesea (C),THOMASTOWN,3074,3074
788,497,Monash (C),Mount Waverley,3149,3149
789,231,Glen Eira (C),East Bentleigh,3165,3165
790,66,Banyule (C),WATSONIA,3087,3087
791,698,Whitehorse (C),MITCHAM,3132,3132
792,189,Darebin (C),KINGSBURY,3083,3083
793,231,Glen Eira (C),ORMOND,3204,3204
794,118,Brimbank (C),ARDEER,3022,3022
795,343,Kingston (C),CLAYTON SOUTH,3169,3169
796,327,Hume (C),TULLAMARINE,3043,3043
797,681,Wellington (S),SALE,3850,3850
798,421,Manningham (C),PARK ORCHARDS,3114,3114
799,118,Brimbank (C),SUNSHINE NORTH,3020,3020
800,698,Whitehorse (C),BLACKBURN,3130,3130
801,698,Whitehorse (C),Blackburn,3130,3130
802,275,Greater Geelong (C),Bell Post Hill,3215,3215
803,421,Manningham (C),DONVALE,3111,3111
804,275,Greater Geelong (C),HIGHTON,3216,3216
805,497,Monash (C),Mount Waverley,3149,3149
806,327,Hume (C),DALLAS,3047,3047
807,525,Moreland (C),FAWKNER,3060,3060
808,506,Moonee Valley (C),KEILOR EAST,3033,3033
809,441,Maroondah (C),BURNT BRIDGE,3136,3136
810,698,Whitehorse (C),FOREST HILL,3131,3131
811,275,Greater Geelong (C),LARA,3212,3212
812,441,Maroondah (C),RINGWOOD,3134,3134
813,161,Casey (C),CRANBOURNE,3977,3977
814,66,Banyule (C),VIEWBANK,3084,3084
815,66,Banyule (C),GREENSBOROUGH,3088,3088
816,745,Yarra Ranges (S),UPWEY,3158,3158
817,183,Corangamite (S),SIMPSON,3266,3266
818,490,Moira (S),Invergordon,3636,3636
819,571,Nillumbik (S),ELTHAM,3095,3095
820,217,Frankston (C),SEAFORD,3198,3198
821,497,Monash (C),MOUNT WAVERLEY,3149,3149
822,367,Knox (C),MOUNTAIN GATE,3156,3156
823,367,Knox (C),FERNTREE GULLY,3156,3156
824,367,Knox (C),BORONIA,3155,3155
825,343,Kingston (C),MOORABBIN,3189,3189
826,441,Maroondah (C),RINGWOOD NORTH,3134,3134
827,525,Moreland (C),GLENROY,3046,3046
828,441,Maroondah (C),Croydon,3136,3136
829,267,Greater Dandenong (C),DANDENONG,3175,3175
830,275,Greater Geelong (C),NEWTOWN,3220,3220
831,217,Frankston (C),KARINGAL,3199,3199
832,497,Monash (C),GLEN WAVERLEY,3150,3150
833,497,Monash (C),Mount Waverley,3149,3149
834,66,Banyule (C),MONTMORENCY,3094,3094
835,91,Bayside (C),Moorabbin,3189,3188
836,311,Hobsons Bay (C),ALTONA NORTH,3025,3025
837,698,Whitehorse (C),Burwood East,3151,3151
838,581,Northern Grampians (S),STAWELL,3380,3380
839,66,Banyule (C),GREENSBOROUGH,3088,3088
840,57,Ballarat (C),WENDOUREE,3355,3355
841,745,Yarra Ranges (S),MOOROOLBARK,3138,3138
842,217,Frankston (C),Pines Forest,3200,3200
843,283,Greater Shepparton (C),SHEPPARTON,3630,3630
844,66,Banyule (C),WATSONIA,3087,3083
845,118,Brimbank (C),ST ALBANS,3021,3021
846,118,Brimbank (C),ST ALBANS,3021,3021
847,225,Gannawarra (S),Kerang,3579,3579
848,327,Hume (C),Broadmeadows,3047,3047
849,343,Kingston (C),MENTONE,3194,3194
850,421,Manningham (C),DONCASTER EAST,3109,3111
851,275,Greater Geelong (C),GEELONG NORTH,3215,3215
852,367,Knox (C),BORONIA,3155,3155
853,497,Monash (C),GLEN WAVERLEY,3150,3150
854,381,Latrobe (C),CHURCHILL,3842,3842
855,275,Greater Geelong (C),HIGHTON,3216,3216
856,367,Knox (C),BAYSWATER,3153,3153
857,217,Frankston (C),SEAFORD,3198,3198
858,381,Latrobe (C),MORWELL,3840,3840
859,707,Whittlesea (C),LALOR,3075,3074
860,118,Brimbank (C),ST ALBANS,3021,3021
861,460,Melbourne (C),CARLTON,3053,3053
862,275,Greater Geelong (C),BELMONT,3216,3216
863,421,Manningham (C),BULLEEN,3105,3107
864,497,Monash (C),GLEN WAVERLEY,3150,3150
865,66,Banyule (C),WATSONIA NORTH,3087,3087
866,267,Greater Dandenong (C),DANDENONG,3175,3175
867,367,Knox (C),KNOXFIELD,3180,3180
868,421,Manningham (C),DONCASTER,3108,3108
869,26,Ararat (RC),ARARAT,3377,3377
870,217,Frankston (C),FRANKSTON SOUTH,3199,3199
871,707,Whittlesea (C),THOMASTOWN,3074,3074
872,367,Knox (C),ROWVILLE,3178,3178
873,726,Wyndham (C),HOPPERS CROSSING,3029,3029
874,421,Manningham (C),TEMPLESTOWE LOWER,3107,3107
875,217,Frankston (C),"Karingal Centre P.O.,FRANKSTON",3199,3199
876,327,Hume (C),Sunbury,3429,3429
877,327,Hume (C),GLADSTONE PARK,3043,3043
878,745,Yarra Ranges (S),MOOROOLBARK,3138,3138
879,497,Monash (C),GLEN WAVERLEY,3150,3150
880,745,Yarra Ranges (S),Mooroolbark,3138,3138
881,367,Knox (C),FERNTREE GULLY,3156,3156
882,66,Banyule (C),BRIAR HILL,3088,3088
883,421,Manningham (C),DONCASTER EAST,3109,3109
884,283,Greater Shepparton (C),SHEPPARTON,3630,3630
885,681,Wellington (S),SALE,3850,3850
886,460,Melbourne (C),Parkville,3052,3052
887,698,Whitehorse (C),VERMONT SOUTH,3133,3133
888,66,Banyule (C),BUNDOORA,3083,3083
889,118,Brimbank (C),DEER PARK,3023,3023
890,327,Hume (C),CAMPBELLFIELD,3061,3061
891,707,Whittlesea (C),LALOR,3075,3075
892,465,Melton (C),MELTON,3337,3337
893,571,Nillumbik (S),DIAMOND CREEK,3089,3089
894,497,Monash (C),Wheelers Hill,3150,3150
895,367,Knox (C),BAYSWATER,3153,3153
896,534,Mornington Peninsula (S),MORNINGTON,3931,3931
897,717,Wodonga (C),WODONGA,3690,3690
898,217,Frankston (C),Belvedere Park PO Seaford,3198,3200
899,735,Yarra (C),RICHMOND,3121,3121
900,441,Maroondah (C),HEATHMONT,3135,3135
901,118,Brimbank (C),ST ALBANS,3021,3021
902,745,Yarra Ranges (S),LILYDALE,3140,3796
903,726,Wyndham (C),HOPPERS CROSSING,3029,3029
904,118,Brimbank (C),SUNSHINE WEST,3020,3020
905,217,Frankston (C),KARINGAL,3199,3199
906,267,Greater Dandenong (C),NOBLE PARK,3174,3174
907,745,Yarra Ranges (S),LILYDALE,3140,3140
908,745,Yarra Ranges (S),MOOROOLBARK,3138,3138
909,118,Brimbank (C),SUNSHINE WEST,3020,3020
910,745,Yarra Ranges (S),KILSYTH,3137,3137
911,939,Unincorporated Vic,Falls Creek,3699,3699
912,506,Moonee Valley (C),FLEMINGTON,3031,3031
913,161,Casey (C),NARRE WARREN,3805,3805
914,441,Maroondah (C),BAYSWATER,3153,3135
915,275,Greater Geelong (C),GROVEDALE,3216,3216
916,381,Latrobe (C),MOE,3825,3825
917,217,Frankston (C),KARINGAL CENTRE,3199,3199
918,367,Knox (C),FERNTREE GULLY,3156,3156
919,118,Brimbank (C),DEER PARK,3023,3023
920,267,Greater Dandenong (C),DANDENONG NORTH,3175,3175
921,283,Greater Shepparton (C),MOOROOPNA,3629,3629
922,465,Melton (C),MELTON SOUTH,3338,3338
923,726,Wyndham (C),WERRIBEE,3030,3030
924,327,Hume (C),GLADSTONE PARK,3043,3043
925,497,Monash (C),WHEELERS HILL,3150,3150
926,497,Monash (C),ASHWOOD,3147,3147
927,327,Hume (C),Dallas,3047,3047
928,421,Manningham (C),BULLEEN,3105,3105
929,343,Kingston (C),CHELTENHAM,3192,3192
930,421,Manningham (C),WARRANDYTE,3113,3113
931,497,Monash (C),WHEELERS HILL,3150,3150
932,343,Kingston (C),DINGLEY VILLAGE,3172,3172
933,506,Moonee Valley (C),ASCOT VALE,3032,3032
934,497,Monash (C),GLEN WAVERLEY,3150,3150
935,698,Whitehorse (C),Vermont South,3133,3133
936,381,Latrobe (C),CHURCHILL,3842,3842
937,118,Brimbank (C),ST ALBANS,3021,3021
938,267,Greater Dandenong (C),NOBLE PARK NORTH,3174,3174
939,441,Maroondah (C),RINGWOOD,3134,3134
940,275,Greater Geelong (C),WHITTINGTON,3219,3219
941,745,Yarra Ranges (S),Coldstream,3770,3770
942,421,Manningham (C),TEMPLESTOWE,3106,3106
943,161,Casey (C),HAMPTON PARK,3976,3976
944,367,Knox (C),WANTIRNA,3152,3152
945,441,Maroondah (C),CROYDON,3136,3136
946,534,Mornington Peninsula (S),CAPEL SOUND,3940,3940
947,707,Whittlesea (C),THOMASTOWN,3074,3074
948,217,Frankston (C),FRANKSTON,3199,3199
949,161,Casey (C),ENDEAVOUR HILLS,3802,3802
950,118,Brimbank (C),ST ALBANS,3021,3021
951,534,Mornington Peninsula (S),MOUNT ELIZA,3930,3930
952,717,Wodonga (C),WEST WODONGA,3690,3690
953,343,Kingston (C),ASPENDALE,3195,3195
954,217,Frankston (C),KARINGAL CENTRE,3199,3199
955,66,Banyule (C),Bellfield,3081,3081
956,590,Port Phillip (C),PORT MELBOURNE,3207,3207
957,490,Moira (S),COBRAM,3644,3644
958,497,Monash (C),BRANDON PARK,3150,3150
959,726,Wyndham (C),WERRIBEE,3030,3024
960,283,Greater Shepparton (C),SHEPPARTON,3632,3630
961,698,Whitehorse (C),VERMONT SOUTH,3133,3133
962,707,Whittlesea (C),MILL PARK,3082,3082
963,571,Nillumbik (S),GREENSBOROUGH,3088,3088
964,465,Melton (C),MELTON,3337,3337
965,267,Greater Dandenong (C),NOBLE PARK,3174,3171
966,726,Wyndham (C),HOPPERS CROSSING DC,3029,3029
967,421,Manningham (C),TEMPLESTOWE,3106,3106
968,534,Mornington Peninsula (S),MOUNT MARTHA,3934,3934
969,311,Hobsons Bay (C),Altona Meadows,3028,3028
970,745,Yarra Ranges (S),THE PATCH,3792,3792
971,681,Wellington (S),Sale,3850,3850
972,497,Monash (C),WHEELERS HILL,3150,3150
973,118,Brimbank (C),ALBANVALE,3021,3021
974,327,Hume (C),SUNBURY,3429,3429
975,57,Ballarat (C),BALLARAT,3350,3350
976,534,Mornington Peninsula (S),MOUNT ELIZA,3930,3930
977,571,Nillumbik (S),GREENSBOROUGH,3088,3088
978,275,Greater Geelong (C),GROVEDALE,3216,3216
979,327,Hume (C),MEADOW HEIGHTS,3048,3048
980,161,Casey (C),CRANBOURNE,3977,3977
981,343,Kingston (C),PATTERSON LAKES,3197,3197
982,217,Frankston (C),SEAFORD,3198,3198
983,745,Yarra Ranges (S),MONTROSE,3765,3765
984,745,Yarra Ranges (S),Chirnside Park,3116,3116
985,74,Bass Coast (S),CORINELLA,3984,3984
986,367,Knox (C),WANTIRNA SOUTH,3152,3152
987,327,Hume (C),Sunbury,3429,3429
988,515,Moorabool (S),BACCHUS MARSH,3340,3340
989,57,Ballarat (C),Redan,3350,3356
990,534,Mornington Peninsula (S),HASTINGS,3915,3915
991,161,Casey (C),ENDEAVOUR HILLS,3802,3802
992,465,Melton (C),MELTON WEST,3337,3337
993,670,Wangaratta (RC),WANGARATTA,3676,3677
994,441,Maroondah (C),CROYDON,3136,3136
995,421,Manningham (C),DONCASTER EAST,3109,3109
996,161,Casey (C),BERWICK,3806,3806
997,118,Brimbank (C),SUNSHINE NORTH,3020,3020
998,311,Hobsons Bay (C),Laverton,3028,3028
999,327,Hume (C),SUNBURY,3429,3429
1000,189,Darebin (C),Reservoir,3073,3073
1001,381,Latrobe (C),TRARALGON,3844,3844
1002,717,Wodonga (C),WEST WODONGA,3690,3690
1003,698,Whitehorse (C),BURWOOD EAST,3151,3151
1004,670,Wangaratta (RC),WANGARATTA,3676,3677
1005,327,Hume (C),MEADOW HEIGHTS,3048,3048
1006,241,Glenelg (S),PORTLAND,3305,3305
1007,534,Mornington Peninsula (S),DROMANA,3936,3936
1008,161,Casey (C),ENDEAVOUR HILLS,3802,3802
1009,161,Casey (C),CRANBOURNE,3977,3977
1010,367,Knox (C),WANTIRNA SOUTH,3152,3152
1011,161,Casey (C),ENDEAVOUR HILLS,3802,3802
1012,118,Brimbank (C),ST ALBANS,3021,3021
1013,161,Casey (C),NARRE WARREN,3805,3805
1014,534,Mornington Peninsula (S),MORNINGTON,3931,3931
1015,343,Kingston (C),MOORABBIN,3189,3189
1016,745,Yarra Ranges (S),MOOROOLBARK,3138,3138
1017,327,Hume (C),CRAIGIEBURN,3064,3064
1018,707,Whittlesea (C),MILL PARK,3082,3082
1019,681,Wellington (S),LOCH SPORT,3851,3851
1020,745,Yarra Ranges (S),Mount Evelyn,3796,3796
1021,175,Colac-Otway (S),COLAC,3250,3250
1022,327,Hume (C),SUNBURY,3429,3429
1023,478,Mildura (RC),MILDURA,3500,3500
1024,231,Glen Eira (C),Moorabbin East,3189,3165
1025,726,Wyndham (C),HOPPERS CROSSING,3029,3029
1026,441,Maroondah (C),CROYDON HILLS,3136,3136
1027,465,Melton (C),MELTON,3337,3337
1028,217,Frankston (C),LANGWARRIN,3910,3910
1029,118,Brimbank (C),Taylors Lakes,3038,3038
1030,66,Banyule (C),ELTHAM NORTH,3095,3095
1031,525,Moreland (C),COBURG,3058,3058
1032,327,Hume (C),BROADMEADOWS,3047,3047
1033,118,Brimbank (C),SUNSHINE,3020,3020
1034,661,Swan Hill (RC),SWAN HILL,3585,3585
1035,735,Yarra (C),RICHMOND,3121,3121
1036,735,Yarra (C),RICHMOND,3121,3121
1037,581,Northern Grampians (S),STAWELL,3380,3380
1038,319,Horsham (RC),HORSHAM,3402,3400
1039,183,Corangamite (S),COBDEN,3266,3266
1040,673,Warrnambool (C),WARRNAMBOOL,3280,3280
1041,433,Maribyrnong (C),KINGSVILLE,3012,3013
1042,275,Greater Geelong (C),DRYSDALE,3222,3222
1043,367,Knox (C),ROWVILLE,3178,3178
1044,241,Glenelg (S),PORTLAND,3305,3305
1045,626,Southern Grampians (S),HAMILTON,3300,3300
1046,707,Whittlesea (C),LALOR,3075,3075
1047,698,Whitehorse (C),BLACKBURN SOUTH,3130,3130
1048,707,Whittlesea (C),EPPING,3076,3076
1049,311,Hobsons Bay (C),ALTONA MEADOWS,3028,3028
1050,111,Boroondara (C),BALWYN NORTH,3104,3104
1051,83,Baw Baw (S),WARRAGUL,3820,3820
1052,311,Hobsons Bay (C),Laverton,3028,3028
1053,763,Yarriambiack (S),WARRACKNABEAL,3393,3393
1054,161,Casey (C),HAMPTON PARK,3976,3976
1055,161,Casey (C),NARRE WARREN,3805,3805
1056,161,Casey (C),ENDEAVOUR HILLS,3802,3802
1057,367,Knox (C),ROWVILLE,3178,3178
1058,118,Brimbank (C),DELAHEY,3037,3037
1059,262,Greater Bendigo (C),KANGAROO FLAT,3555,3555
1060,137,Campaspe (S),ECHUCA,3564,3564
1061,343,Kingston (C),ASPENDALE GARDENS,3195,3195
1062,161,Casey (C),Berwick,3806,3806
1063,161,Casey (C),BERWICK,3806,3806
1064,367,Knox (C),FERNTREE GULLY,3156,3156
1065,726,Wyndham (C),WERRIBEE,3030,3029
1066,217,Frankston (C),CARRUM DOWNS,3201,3201
1067,726,Wyndham (C),HOPPERS CROSSING DC,3029,3029
1068,217,Frankston (C),LANGWARRIN,3910,3910
1069,707,Whittlesea (C),MILL PARK,3082,3082
1070,118,Brimbank (C),KEILOR DOWNS,3038,3038
1071,311,Hobsons Bay (C),SEABROOK,3028,3028
1072,327,Hume (C),CRAIGIEBURN,3064,3064
1073,726,Wyndham (C),WERRIBEE,3030,3030
1074,367,Knox (C),ROWVILLE,3178,3178
1075,478,Mildura (RC),MILDURA,3502,3500
1076,161,Casey (C),HAMPTON PARK,3976,3976
1077,327,Hume (C),SUNBURY,3429,3429
1078,275,Greater Geelong (C),OCEAN GROVE,3226,3226
1079,161,Casey (C),NARRE WARREN,3805,3805
1080,726,Wyndham (C),Werribee,3030,3030
1081,643,Strathbogie (S),VIOLET TOWN,3669,3669
1082,275,Greater Geelong (C),BELMONT,3216,3216
1083,515,Moorabool (S),Bacchus Marsh,3340,3340
1084,145,Cardinia (S),PAKENHAM,3810,3810
1085,161,Casey (C),CRANBOURNE NORTH,3977,3977
1086,534,Mornington Peninsula (S),SOMERVILLE,3912,3912
1087,183,Corangamite (S),DERRINALLUM,3325,3325
1088,549,Moyne (S),MORTLAKE,3272,3272
1089,626,Southern Grampians (S),BRANXHOLME,3302,3302
1090,275,Greater Geelong (C),MOUNT DUNEED,3217,3217
1091,549,Moyne (S),GRASMERE,3281,3281
1092,241,Glenelg (S),NARRAWONG,3285,3285
1093,57,Ballarat (C),BALLARAT MAIL CENTRE,3354,3350
1094,57,Ballarat (C),BALLARAT,3354,3350
1095,763,Yarriambiack (S),TEMPY,3489,3489
1096,83,Baw Baw (S),RAWSON,3825,3825
1097,681,Wellington (S),Bundalaguah,3851,3851
1098,83,Baw Baw (S),LARDNER,3821,3821
1099,83,Baw Baw (S),NAYOOK,3832,3832
1100,681,Wellington (S),NAMBROK,3847,3847
1101,617,South Gippsland (S),WELSHPOOL,3966,3966
1102,670,Wangaratta (RC),WHITFIELD,3733,3733
1103,670,Wangaratta (RC),GRETA SOUTH,3675,3675
1104,670,Wangaratta (RC),Everton,3678,3678
1105,490,Moira (S),WAAIA,3637,3637
1106,478,Mildura (RC),NANGILOC,3494,3494
1107,127,Buloke (S),SEA LAKE,3533,3533
1108,543,Mount Alexander (S),HARCOURT,3453,3453
1109,661,Swan Hill (RC),BEVERFORD,3590,3590
1110,506,Moonee Valley (C),NIDDRIE,3042,3042
1111,465,Melton (C),TOOLERN VALE,3337,3337
1112,497,Monash (C),ASHWOOD,3147,3147
1113,217,Frankston (C),SEAFORD,3198,3198
1114,698,Whitehorse (C),BOX HILL SOUTH,3128,3128
1115,617,South Gippsland (S),MEENIYAN,3956,3956
1116,145,Cardinia (S),BAYLES,3981,3981
1117,343,Kingston (C),CHELTENHAM,3192,3192
1118,74,Bass Coast (S),DALYSTON,3992,3992
1119,497,Monash (C),GLEN WAVERLEY,3150,3150
1120,367,Knox (C),KNOXFIELD,3180,3180
1121,497,Monash (C),WAVERLEY GARDENS,3170,3170
1122,497,Monash (C),OAKLEIGH EAST,3166,3166
1123,367,Knox (C),Boronia,3155,3155
1124,497,Monash (C),MOUNT WAVERLEY,3149,3149
1125,698,Whitehorse (C),MITCHAM,3132,3132
1126,689,West Wimmera (S),EDENHOPE,3318,3318
1127,478,Mildura (RC),MURRAYVILLE,3512,3512
1128,549,Moyne (S),HAWKESDALE,3287,3287
1129,267,Greater Dandenong (C),NOBLE PARK,3174,3174
1130,497,Monash (C),GLEN WAVERLEY,3150,3150
1131,66,Banyule (C),YALLAMBIE,3085,3085
1132,661,Swan Hill (RC),WOORINEN SOUTH,3588,3588
1133,249,Golden Plains (S),SMYTHESDALE,3351,3351
1134,745,Yarra Ranges (S),WARBURTON,3799,3799
1135,681,Wellington (S),GORMANDALE,3873,3873
1136,327,Hume (C),SOMERTON,3062,3064
1137,275,Greater Geelong (C),NEWCOMB,3219,3219
1138,433,Maribyrnong (C),WEST FOOTSCRAY,3012,3019
1139,525,Moreland (C),GLENROY,3046,3046
1140,421,Manningham (C),DONCASTER EAST,3109,3109
1141,661,Swan Hill (RC),NYAH WEST,3595,3595
1142,161,Casey (C),NARRE WARREN SOUTH,3805,3805
1143,161,Casey (C),CRANBOURNE EAST,3977,3977
1144,441,Maroondah (C),Heathmont,3135,3135
1145,161,Casey (C),BERWICK,3806,3806
1146,465,Melton (C),HILLSIDE,3037,3037
1147,161,Casey (C),NARRE WARREN SOUTH,3805,3805
1148,327,Hume (C),ROXBURGH PARK,3064,3064
1149,726,Wyndham (C),Point Cook,3030,3030
1150,534,Mornington Peninsula (S),MORNINGTON,3931,3931
1151,231,Glen Eira (C),CAULFIELD SOUTH,3162,3162
1152,211,East Gippsland (S),BAIRNSDALE,3875,3875
1153,327,Hume (C),ROXBURGH PARK,3064,3064
1154,161,Casey (C),LYNBROOK,3975,3975
1155,617,South Gippsland (S),LEONGATHA,3953,3953
1156,707,Whittlesea (C),Doreen,3754,3754
1157,726,Wyndham (C),Tarneit,3029,3029
1158,465,Melton (C),Caroline Springs,3023,3023
1159,707,Whittlesea (C),Epping,3076,3076
1160,726,Wyndham (C),Truganina,3029,3029
1161,161,Casey (C),Narre Warren South,3805,3806
1162,145,Cardinia (S),Officer,3809,3810
1163,145,Cardinia (S),Pakenham,3810,3810
1164,465,Melton (C),Caroline Springs,3023,3037
1165,161,Casey (C),Cranbourne,3977,3977
1166,698,Whitehorse (C),Blackburn South,3130,3130
1167,118,Brimbank (C),Deer Park,3023,3030
1168,707,Whittlesea (C),Epping,3076,3076
1169,137,Campaspe (S),Echuca,3564,3564
1170,161,Casey (C),Cranbourne East,3977,3977
1171,57,Ballarat (C),Wendouree,3355,3355
1172,161,Casey (C),Lyndhurst,3975,3975
1173,327,Hume (C),Craigieburn,3064,3064
1174,189,Darebin (C),Reservoir,3073,3073
1175,327,Hume (C),Broadmeadows,3047,3047
1176,707,Whittlesea (C),Mernda,3754,3754
1177,118,Brimbank (C),Sunshine,3020,3020
1178,726,Wyndham (C),POINT COOK,3030,3030
1179,698,Whitehorse (C),Blackburn North,3130,3130
1180,262,Greater Bendigo (C),Golden Square,3555,3555
1181,707,Whittlesea (C),Lalor,3075,3075
1182,267,Greater Dandenong (C),Keysborough,3173,3173
1183,267,Greater Dandenong (C),Springvale South,3172,3172
1184,267,Greater Dandenong (C),Dandenong North,3175,3175
1185,267,Greater Dandenong (C),SPRINGVALE SOUTH,3172,3172
1186,267,Greater Dandenong (C),Springvale,3171,3171
1187,267,Greater Dandenong (C),Springvale,3171,3171
1188,118,Brimbank (C),Keilor Downs,3038,3038
1189,726,Wyndham (C),Werribee,3030,3030
1190,262,Greater Bendigo (C),Nth Bendigo,3550,3550
1191,525,Moreland (C),Glenroy,3046,3046
1192,189,Darebin (C),Reservoir,3073,3073
1193,327,Hume (C),Craigieburn,3064,3064
1194,327,Hume (C),Dallas,3047,3047
1195,211,East Gippsland (S),Goongerah,3888,3888
1196,319,Horsham (RC),Horsham,3402,3400
1197,726,Wyndham (C),Wyndham Vale,3024,3024
1198,145,Cardinia (S),Officer,3809,3809
1199,707,Whittlesea (C),Epping,3076,3076
1200,707,Whittlesea (C),Doreen,3754,3754
1201,161,Casey (C),Narre Warren South,3805,3977
1202,327,Hume (C),Dallas,3047,3048
1203,327,Hume (C),Jacana,3047,3047
1204,649,Surf Coast (S),Torquay,3228,3228
1205,465,Melton (C),Melton West,3337,3337
1206,161,Casey (C),Clyde North,3978,3978
1207,590,Port Phillip (C),Southbank,3006,3006
1208,161,Casey (C),Cranbourne West,3977,3977
1209,145,Cardinia (S),Officer,3809,3810
1210,145,Cardinia (S),Officer,3809,3809
1211,275,Greater Geelong (C),Armstrong Creek,3217,3217
1212,275,Greater Geelong (C),Geelong West,3218,3215
1213,649,Surf Coast (S),Aireys Inlet,3231,3231
1214,381,Latrobe (C),Morwell,3840,3840
1215,175,Colac-Otway (S),COLAC,3249,3249
1216,175,Colac-Otway (S),APOLLO BAY,3233,3233
1217,681,Wellington (S),BOISDALE,3860,3860
1218,490,Moira (S),COBRAM,3644,3644
1219,225,Gannawarra (S),COHUNA,3568,3568
1220,735,Yarra (C),ABBOTSFORD,3067,3066
1221,626,Southern Grampians (S),DUNKELD,3294,3294
1222,394,Loddon (S),DINGEE,3571,3571
1223,617,South Gippsland (S),FOSTER,3960,3960
1224,689,West Wimmera (S),GOROKE,3412,3412
1225,241,Glenelg (S),HEYWOOD,3304,3304
1226,335,Indigo (S),TANGAMBALANGA,3691,3691
1227,175,Colac-Otway (S),LAVERS HILL,3238,3238
1228,137,Campaspe (S),LOCKINGTON,3563,3563
1229,661,Swan Hill (RC),MANANGATANG,3546,3546
1230,183,Corangamite (S),TERANG,3264,3264
1231,241,Glenelg (S),MERINO,3310,3310
1232,137,Campaspe (S),RUSHWORTH,3612,3612
1233,66,Banyule (C),MACLEOD,3085,3085
1234,145,Cardinia (S),PAKENHAM,3810,3810
1235,617,South Gippsland (S),POOWONG,3988,3988
1236,549,Moyne (S),PORT FAIRY,3284,3284
1237,534,Mornington Peninsula (S),RED HILL,3937,3937
1238,745,Yarra Ranges (S),SASSAFRAS,3787,3787
1239,137,Campaspe (S),TONGALA,3621,3621
1240,478,Mildura (RC),WERRIMULL,3496,3496
1241,183,Corangamite (S),CAMPERDOWN,3260,3260
1242,183,Corangamite (S),TIMBOON,3268,3268
1243,189,Darebin (C),THORNBURY,3071,3071
1244,394,Loddon (S),WEDDERBURN,3518,3518
1245,189,Darebin (C),THORNBURY,3071,3071
1246,343,Kingston (C),MOORABBIN,3189,3189
1247,497,Monash (C),Clayton,3168,3168
1248,217,Frankston (C),FRANKSTON SOUTH,3199,3199
1249,698,Whitehorse (C),MONT ALBERT NORTH,3129,3129
1250,707,Whittlesea (C),Mernda,3754,3754
1251,183,Corangamite (S),COBDEN,3266,3266
1252,161,Casey (C),CRANBOURNE,3977,3977
1253,291,Hepburn (S),DAYLESFORD,3460,3460
1254,534,Mornington Peninsula (S),DROMANA,3936,3936
1255,275,Greater Geelong (C),GROVEDALE,3216,3216
1256,478,Mildura (RC),IRYMPLE,3498,3498
1257,262,Greater Bendigo (C),KANGAROO FLAT,3555,3555
1258,707,Whittlesea (C),EPPING,3076,3075
1259,745,Yarra Ranges (S),Lilydale,3140,3140
1260,465,Melton (C),MELTON SOUTH,3338,3338
1261,478,Mildura (RC),MILDURA,3502,3500
1262,231,Glen Eira (C),BENTLEIGH EAST,3165,3165
1263,57,Ballarat (C),BALLARAT,3350,3353
1264,506,Moonee Valley (C),NIDDRIE,3042,3042
1265,189,Darebin (C),NORTHLAND,3072,3072
1266,283,Greater Shepparton (C),SHEPPARTON,3632,3630
1267,111,Boroondara (C),HAWTHORN,3122,3122
1268,460,Melbourne (C),SOUTHBANK,3006,3006
1269,673,Warrnambool (C),Warrnambool,3280,3280
1270,726,Wyndham (C),WERRIBEE,3030,3030
1271,262,Greater Bendigo (C),BENDIGO,3552,3550
1272,707,Whittlesea (C),WHITTLESEA,3757,3757
1273,562,Murrindindi (S),ALEXANDRA,3714,3714
1274,111,Boroondara (C),Hawthorn East,3123,3123
1275,57,Ballarat (C),BALLARAT,3350,3350
1276,111,Boroondara (C),BALWYN NORTH,3104,3104
1277,367,Knox (C),BAYSWATER,3153,3153
1278,599,Pyrenees (S),Beaufort,3373,3373
1279,91,Bayside (C),Beaumaris,3193,3193
1280,335,Indigo (S),Beechworth,3747,3747
1281,275,Greater Geelong (C),BELMONT,3216,3216
1282,262,Greater Bendigo (C),BENDIGO,3552,3550
1283,161,Casey (C),BERWICK,3806,3806
1284,698,Whitehorse (C),BLACKBURN,3130,3130
1285,11,Alpine (S),BOGONG,3699,3699
1286,698,Whitehorse (C),BOX HILL,3128,3128
1287,433,Maribyrnong (C),BRAYBROOK,3019,3019
1288,497,Monash (C),GLEN WAVERLEY,3150,3150
1289,91,Bayside (C),BRIGHTON EAST,3187,3187
1290,485,Mitchell (S),BROADFORD,3658,3658
1291,506,Moonee Valley (C),ESSENDON,3040,3040
1292,111,Boroondara (C),CANTERBURY,3126,3126
1293,111,Boroondara (C),CANTERBURY,3126,3126
1294,241,Glenelg (S),CASTERTON,3311,3311
1295,343,Kingston (C),MOORABBIN,3189,3192
1296,490,Moira (S),COBRAM,3644,3644
1297,225,Gannawarra (S),COHUNA,3568,3568
1298,161,Casey (C),CRANBOURNE,3977,3977
1299,441,Maroondah (C),Croydon,3136,3136
1300,506,Moonee Valley (C),FLEMINGTON,3031,3031
1301,298,Hindmarsh (S),DIMBOOLA,3414,3414
1302,421,Manningham (C),DONCASTER EAST,3109,3109
1303,127,Buloke (S),DONALD,3480,3480
1304,421,Manningham (C),DONCASTER,3108,3108
1305,83,Baw Baw (S),DROUIN,3818,3818
1306,262,Greater Bendigo (C),EAGLEHAWK,3556,3556
1307,571,Nillumbik (S),ELTHAM,3095,3095
1308,590,Port Phillip (C),ELWOOD,3184,3184
1309,707,Whittlesea (C),EPPING,3076,3076
1310,643,Strathbogie (S),EUROA,3666,3666
1311,367,Knox (C),FERNTREE GULLY,3156,3180
1312,262,Greater Bendigo (C),Strathdale,3550,3550
1313,433,Maribyrnong (C),FOOTSCRAY,3011,3011
1314,617,South Gippsland (S),FOSTER,3960,3960
1315,217,Frankston (C),FRANKSTON,3199,3199
1316,275,Greater Geelong (C),EAST GEELONG,3219,3219
1317,275,Greater Geelong (C),NORTH GEELONG,3215,3215
1318,413,Macedon Ranges (S),GISBORNE,3437,3437
1319,327,Hume (C),GLADSTONE PARK,3043,3043
1320,66,Banyule (C),BUNDOORA,3083,3083
1321,534,Mornington Peninsula (S),HASTINGS,3915,3915
1322,745,Yarra Ranges (S),HEALESVILLE,3777,3777
1323,241,Glenelg (S),HEYWOOD,3304,3304
1324,497,Monash (C),GLEN WAVERLEY,3150,3150
1325,225,Gannawarra (S),KERANG,3579,3579
1326,506,Moonee Valley (C),FLEMINGTON,3031,3031
1327,111,Boroondara (C),KEW EAST,3102,3102
1328,698,Whitehorse (C),GREYTHORN,3104,3129
1329,145,Cardinia (S),KOO WEE RUP,3981,3981
1330,617,South Gippsland (S),KORUMBURRA,3950,3950
1331,137,Campaspe (S),KYABRAM,3619,3620
1332,413,Macedon Ranges (S),KYNETON,3444,3444
1333,707,Whittlesea (C),LALOR,3075,3075
1334,707,Whittlesea (C),EPPING,3076,3076
1335,745,Yarra Ranges (S),LILYDALE,3140,3140
1336,649,Surf Coast (S),Lorne P-12 College,3232,3232
1337,267,Greater Dandenong (C),DANDENONG NORTH,3175,3175
1338,735,Yarra (C),RICHMOND,3121,3121
1339,681,Wellington (S),MAFFRA,3860,3860
1340,425,Mansfield (S),MANSFIELD,3724,3722
1341,433,Maribyrnong (C),MARIBYRNONG,3032,3032
1342,275,Greater Geelong (C),GEELONG,3220,3220
1343,635,Stonnington (C),SOUTH YARRA,3141,3141
1344,465,Melton (C),MELTON,3337,3337
1345,343,Kingston (C),MENTONE,3194,3194
1346,478,Mildura (RC),MILDURA,3502,3500
1347,617,South Gippsland (S),MIRBOO NORTH,3871,3871
1348,745,Yarra Ranges (S),MONBULK,3793,3793
1349,66,Banyule (C),MONTMORENCY,3094,3094
1350,745,Yarra Ranges (S),MOOROOLBARK,3138,3138
1351,283,Greater Shepparton (C),MOOROOPNA,3629,3629
1352,343,Kingston (C),MORDIALLOC,3195,3195
1353,11,Alpine (S),MOUNT BEAUTY,3699,3699
1354,534,Mornington Peninsula (S),MOUNT ELIZA,3930,3930
1355,497,Monash (C),MOUNT WAVERLEY,3149,3149
1356,231,Glen Eira (C),MCKINNON,3204,3204
1357,590,Port Phillip (C),MELBOURNE,3004,3004
1358,490,Moira (S),NATHALIA,3638,3638
1359,83,Baw Baw (S),NEERIM SOUTH,3831,3831
1360,275,Greater Geelong (C),NEWCOMB,3219,3219
1361,189,Darebin (C),NORTHCOTE,3070,3070
1362,441,Maroondah (C),RINGWOOD,3134,3134
1363,490,Moira (S),NUMURKAH,3636,3636
1364,275,Greater Geelong (C),BELMONT,3216,3216
1365,211,East Gippsland (S),ORBOST,3888,3888
1366,478,Mildura (RC),OUYEN,3490,3490
1367,145,Cardinia (S),PAKENHAM,3810,3810
1368,343,Kingston (C),MORDIALLOC,3195,3195
1369,525,Moreland (C),PASCOE VALE,3044,3044
1370,735,Yarra (C),PRINCES HILL,3054,3054
1371,275,Greater Geelong (C),DRYSDALE,3222,3222
1372,298,Hindmarsh (S),Rainbow,3424,3424
1373,478,Mildura (RC),RED CLIFFS,3496,3496
1374,441,Maroondah (C),RINGWOOD,3134,3134
1375,735,Yarra (C),Richmond,3121,3121
1376,661,Swan Hill (RC),ROBINVALE,3549,3549
1377,137,Campaspe (S),ROCHESTER,3561,3561
1378,534,Mornington Peninsula (S),ROSEBUD,3939,3939
1379,562,Murrindindi (S),THORNTON,3712,3712
1380,335,Indigo (S),RUTHERGLEN,3685,3685
1381,367,Knox (C),SCORESBY,3179,3179
1382,283,Greater Shepparton (C),SHEPPARTON,3632,3630
1383,118,Brimbank (C),ST ALBANS,3021,3021
1384,581,Northern Grampians (S),ST ARNAUD,3478,3478
1385,231,Glen Eira (C),CAULFIELD NORTH,3161,3161
1386,506,Moonee Valley (C),STRATHMORE,3041,3041
1387,327,Hume (C),Sunbury,3429,3429
1388,525,Moreland (C),BRUNSWICK,3056,3056
1389,667,Towong (S),TALLANGATTA,3700,3700
1390,707,Whittlesea (C),THOMASTOWN,3074,3074
1391,83,Baw Baw (S),TRAFALGAR,3824,3824
1392,460,Melbourne (C),PARKVILLE,3052,3052
1393,327,Hume (C),Somerton BC Somerton,3062,3064
1394,745,Yarra Ranges (S),Yarra Junction,3797,3797
1395,745,Yarra Ranges (S),UPWEY,3158,3158
1396,698,Whitehorse (C),Vermont,3133,3133
1397,161,Casey (C),BERWICK,3806,3806
1398,283,Greater Shepparton (C),SHEPPARTON,3632,3630
1399,217,Frankston (C),CARRUM DOWNS,3201,3201
1400,670,Wangaratta (RC),WANGARATTA,3676,3677
1401,367,Knox (C),WANTIRNA,3152,3152
1402,763,Yarriambiack (S),WARRACKNABEAL,3393,3393
1403,421,Manningham (C),Warrandyte,3113,3113
1404,497,Monash (C),MULGRAVE NORTH,3170,3170
1405,726,Wyndham (C),WERRIBEE,3030,3030
1406,211,East Gippsland (S),BAIRNSDALE,3875,3875
1407,343,Kingston (C),CLAYTON SOUTH,3169,3169
1408,497,Monash (C),WHEELERS HILL,3150,3150
1409,311,Hobsons Bay (C),WILLIAMSTOWN,3016,3016
1410,717,Wodonga (C),WODONGA,3690,3690
1411,681,Wellington (S),YARRAM,3971,3971
1412,562,Murrindindi (S),YEA,3717,3717
1413,231,Glen Eira (C),CAULFIELD EAST,3145,3145
1414,327,Hume (C),CRAIGIEBURN,3064,3064
1415,145,Cardinia (S),EMERALD,3782,3782
1416,189,Darebin (C),RESERVOIR,3073,3073
1417,161,Casey (C),HAMPTON PARK,3976,3976
1418,726,Wyndham (C),HOPPERS CROSSING,3029,3029
1419,118,Brimbank (C),Taylors Lakes,3038,3038
1420,381,Latrobe (C),Morwell BC,3841,3840
1421,465,Melton (C),MELTON,3337,3337
1422,211,East Gippsland (S),LAKES ENTRANCE,3909,3909
1423,217,Frankston (C),LANGWARRIN,3910,3910
1424,327,Hume (C),SUNBURY,3429,3429
1425,698,Whitehorse (C),BURWOOD EAST,3151,3151
1426,217,Frankston (C),SEAFORD,3198,3198
1427,66,Banyule (C),ELTHAM NORTH,3095,3095
1428,581,Northern Grampians (S),STAWELL,3380,3380
1429,367,Knox (C),ROWVILLE,3178,3178
1430,74,Bass Coast (S),WONTHAGGI,3995,3995
1431,91,Bayside (C),SANDRINGHAM,3191,3191
1432,735,Yarra (C),FITZROY NORTH,3068,3068
1433,497,Monash (C),ASHWOOD,3147,3147
1434,698,Whitehorse (C),MITCHAM,3132,3132
1435,617,South Gippsland (S),LEONGATHA,3953,3953
1436,571,Nillumbik (S),DIAMOND CREEK,3089,3089
1437,698,Whitehorse (C),BURWOOD EAST,3151,3151
1438,735,Yarra (C),COLLINGWOOD,3066,3066
1439,267,Greater Dandenong (C),NOBLE PARK,3174,3174
1440,66,Banyule (C),GREENSBOROUGH,3088,3088
1441,26,Ararat (RC),ARARAT,3377,3377
1442,707,Whittlesea (C),MILL PARK,3082,3082
1443,515,Moorabool (S),BACCHUS MARSH,3340,3340
1444,726,Wyndham (C),WERRIBEE,3030,3029
1445,465,Melton (C),Fraser Rise,3336,3336
1446,118,Brimbank (C),TAYLORS LAKES,3038,3038
1447,118,Brimbank (C),SUNSHINE,3020,3020
1448,485,Mitchell (S),Wallan,3756,3756
1449,189,Darebin (C),Thornbury,3071,3071
1450,241,Glenelg (S),PORTLAND,3305,3305
1451,118,Brimbank (C),DELAHEY,3037,3037
1452,311,Hobsons Bay (C),ALTONA NORTH,3025,3016
1453,497,Monash (C),OAKLEIGH SOUTH,3167,3167
1454,661,Swan Hill (RC),SWAN HILL,3585,3585
1455,381,Latrobe (C),TRARALGON,3844,3844
1456,534,Mornington Peninsula (S),MORNINGTON,3931,3931
1457,506,Moonee Valley (C),NIDDRIE,3042,3033
1458,525,Moreland (C),BRUNSWICK,3056,3056
1459,497,Monash (C),Glen Waverley,3150,3150
1460,217,Frankston (C),FRANKSTON NORTH,3200,3200
1461,673,Warrnambool (C),Warrnambool,3280,3280
1462,66,Banyule (C),ROSANNA,3084,3084
1463,267,Greater Dandenong (C),NOBLE PARK,3174,3174
1464,626,Southern Grampians (S),HAMILTON,3300,3300
1465,745,Yarra Ranges (S),MOOROOLBARK,3138,3138
1466,441,Maroondah (C),HEATHMONT,3135,3135
1467,319,Horsham (RC),HORSHAM,3402,3402
1468,735,Yarra (C),RICHMOND,3121,3121
1469,275,Greater Geelong (C),GEELONG,3220,3215
1470,381,Latrobe (C),MOE,3825,3825
1471,421,Manningham (C),TEMPLESTOWE LOWER,3107,3107
1472,543,Mount Alexander (S),CASTLEMAINE,3450,3450
1473,83,Baw Baw (S),WARRAGUL,3820,3820
1474,57,Ballarat (C),BALLARAT MAIL CENTRE,3354,3355
1475,127,Buloke (S),CHARLTON,3525,3525
1476,127,Buloke (S),WYCHEPROOF,3527,3527
1477,127,Buloke (S),BIRCHIP,3483,3483
1478,298,Hindmarsh (S),NHILL,3418,3418
1479,681,Wellington (S),SALE,3850,3850
1480,217,Frankston (C),FRANKSTON,3199,3199
1481,433,Maribyrnong (C),FOOTSCRAY,3011,3011
1482,11,Alpine (S),DINNER PLAIN,3898,3898
1483,433,Maribyrnong (C),ROBINSON,3019,3019
1484,161,Casey (C),NARRE WARREN SOUTH,3805,3805
1485,275,Greater Geelong (C),LARA,3212,3212
1486,689,West Wimmera (S),KANIVA,3419,3419
1487,667,Towong (S),CORRYONG,3707,3707
1488,167,Central Goldfields (S),Maryborough,3465,3465
1489,707,Whittlesea (C),South Morang,3752,3752
1490,726,Wyndham (C),Point Cook,3030,3030
1491,726,Wyndham (C),Werribee,3030,3024
1492,525,Moreland (C),Coburg,3058,3058
1493,717,Wodonga (C),Wodonga,3689,3690
1494,327,Hume (C),Craigieburn,3064,3064
1495,726,Wyndham (C),Tarneit,3029,3029
1496,137,Campaspe (S),ECHUCA,3564,3564
1497,497,Monash (C),Monash University,3800,3800
1498,311,Hobsons Bay (C),Altona,3018,3018
1499,267,Greater Dandenong (C),DANDENONG,3175,3175
1500,74,Bass Coast (S),Wonthaggi,3995,3995
1501,311,Hobsons Bay (C),Laverton,3028,3028
1502,327,Hume (C),DALLAS,3047,3047
1503,175,Colac-Otway (S),Colac,3250,3250
1504,161,Casey (C),NARRE WARREN,3805,3806
1505,726,Wyndham (C),Werribee,3030,3030
1506,267,Greater Dandenong (C),Springvale South,3172,3172
1507,161,Casey (C),Hallam,3803,3803
1508,161,Casey (C),Endeavour Hills,3802,3802
1509,161,Casey (C),Hallam,3803,3805
1510,626,Southern Grampians (S),Balmoral,3407,3407
1511,11,Alpine (S),Myrtleford,3736,3737
1512,161,Casey (C),Narre Warren South,3805,3977
1513,534,Mornington Peninsula (S),Somerville,3912,3912
1514,726,Wyndham (C),Tarneit,3029,3029
1515,394,Loddon (S),Boort,3537,3537
1516,490,Moira (S),Yarrawonga,3730,3730
1517,485,Mitchell (S),Seymour,3661,3660
1518,478,Mildura (RC),Merbein,3505,3505
1519,590,Port Phillip (C),Albert Park,3206,3206
1520,681,Wellington (S),SALE,3850,3850
1521,189,Darebin (C),Heidelberg West,3081,3085
1522,118,Brimbank (C),St. Albans,3021,3021
1523,211,East Gippsland (S),Swifts Creek,3896,3896
1524,525,Moreland (C),Glenroy,3046,3046
1525,525,Moreland (C),Fawkner,3060,3060
1526,189,Darebin (C),Reservoir,3073,3073
1527,707,Whittlesea (C),Mernda,3754,3754
1528,161,Casey (C),Cranbourne,3977,3977
1529,726,Wyndham (C),Point Cook,3030,3030
1530,57,Ballarat (C),Sebastopol,3356,3356
1531,275,Greater Geelong (C),CORIO,3214,3214
1532,649,Surf Coast (S),Torquay,3228,3228
1533,763,Yarriambiack (S),Hopetoun,3396,3396
1534,161,Casey (C),DOVETON,3177,3177
1535,145,Cardinia (S),Officer,3809,3809
1536,465,Melton (C),Caroline Springs,3023,3023
1537,465,Melton (C),Caroline Springs,3023,3023
1538,465,Melton (C),Caroline Springs,3023,3023
1539,465,Melton (C),Caroline Springs,3023,3023
1540,441,Maroondah (C),Croydon,3136,3136
1541,367,Knox (C),Boronia,3155,3155
1542,726,Wyndham (C),Tarneit,3029,3029
1543,101,Benalla (RC),Benalla,3672,3672
1544,460,Melbourne (C),Parkville,3052,3052
1545,460,Melbourne (C),MELBOURNE,3004,3004
1546,635,Stonnington (C),GLEN IRIS,3146,3146
1547,66,Banyule (C),BUNDOORA,3083,3083
1548,460,Melbourne (C),WEST MELBOURNE,3003,3003
1549,590,Port Phillip (C),ST KILDA,3182,3183
1550,335,Indigo (S),RUTHERGLEN,3685,3685
1551,57,Ballarat (C),BALLARAT,3350,3350
1552,57,Ballarat (C),BALLARAT WEST,3350,3350
1553,57,Ballarat (C),BALLARAT EAST,3350,3350
1554,673,Warrnambool (C),WARRNAMBOOL,3280,3280
1555,57,Ballarat (C),BALLARAT,3350,3350
1556,425,Mansfield (S),MANSFIELD,3724,3722
1557,311,Hobsons Bay (C),NEWPORT,3015,3015
1558,311,Hobsons Bay (C),WILLIAMSTOWN,3016,3016
1559,111,Boroondara (C),KEW,3101,3101
1560,231,Glen Eira (C),ELSTERNWICK,3185,3183
1561,460,Melbourne (C),NORTH MELBOURNE,3051,3051
1562,670,Wangaratta (RC),WANGARATTA,3677,3677
1563,635,Stonnington (C),WINDSOR,3181,3181
1564,590,Port Phillip (C),ST KILDA EAST,3183,3183
1565,485,Mitchell (S),KILMORE,3764,3764
1566,506,Moonee Valley (C),FLEMINGTON,3031,3031
1567,262,Greater Bendigo (C),BENDIGO,3550,3550
1568,167,Central Goldfields (S),MARYBOROUGH,3465,3465
1569,167,Central Goldfields (S),MARYBOROUGH,3465,3465
1570,211,East Gippsland (S),BAIRNSDALE,3875,3875
1571,57,Ballarat (C),REDAN,3350,3350
1572,111,Boroondara (C),HAWTHORN,3122,3122
1573,635,Stonnington (C),GLEN IRIS,3146,3146
1574,189,Darebin (C),NORTHCOTE,3070,3070
1575,189,Darebin (C),PRESTON,3072,3072
1576,381,Latrobe (C),MORWELL,3841,3840
1577,381,Latrobe (C),TRARALGON,3844,3844
1578,283,Greater Shepparton (C),SHEPPARTON,3630,3630
1579,485,Mitchell (S),SEYMOUR,3660,3660
1580,127,Buloke (S),DONALD,3480,3480
1581,485,Mitchell (S),KILMORE,3764,3764
1582,515,Moorabool (S),BALLAN,3342,3342
1583,515,Moorabool (S),GORDON,3345,3345
1584,413,Macedon Ranges (S),LANCEFIELD,3435,3435
1585,291,Hepburn (S),CRESWICK,3363,3363
1586,626,Southern Grampians (S),TARRINGTON,3301,3301
1587,262,Greater Bendigo (C),KANGAROO FLAT,3555,3555
1588,101,Benalla (RC),BENALLA,3672,3672
1589,515,Moorabool (S),DUNNSTOWN,3352,3352
1590,275,Greater Geelong (C),NEWTOWN,3220,3220
1591,581,Northern Grampians (S),ST ARNAUD,3478,3478
1592,478,Mildura (RC),MILDURA,3500,3500
1593,91,Bayside (C),BRIGHTON,3186,3186
1594,91,Bayside (C),BRIGHTON,3186,3186
1595,231,Glen Eira (C),BENTLEIGH EAST,3165,3165
1596,111,Boroondara (C),KEW,3101,3101
1597,262,Greater Bendigo (C),EAGLEHAWK,3556,3556
1598,57,Ballarat (C),MOUNT CLEAR,3350,3350
1599,57,Ballarat (C),BALLARAT,3350,3350
1600,543,Mount Alexander (S),CASTLEMAINE,3450,3450
1601,413,Macedon Ranges (S),KYNETON,3444,3444
1602,413,Macedon Ranges (S),WOODEND,3442,3442
1603,127,Buloke (S),CHARLTON,3525,3525
1604,283,Greater Shepparton (C),TATURA,3616,3616
1605,460,Melbourne (C),SOUTH YARRA,3141,3141
1606,525,Moreland (C),COBURG,3058,3058
1607,726,Wyndham (C),WERRIBEE,3030,3030
1608,413,Macedon Ranges (S),GISBORNE,3437,3437
1609,327,Hume (C),SUNBURY,3429,3429
1610,335,Indigo (S),CHILTERN,3683,3683
1611,394,Loddon (S),INGLEWOOD,3517,3517
1612,101,Benalla (RC),BENALLA,3672,3672
1613,111,Boroondara (C),BALWYN,3103,3103
1614,145,Cardinia (S),PAKENHAM,3810,3810
1615,635,Stonnington (C),ARMADALE,3143,3143
1616,490,Moira (S),YARRAWONGA,3730,3730
1617,111,Boroondara (C),KEW,3101,3101
1618,626,Southern Grampians (S),PENSHURST,3289,3289
1619,26,Ararat (RC),ARARAT,3377,3377
1620,241,Glenelg (S),CASTERTON,3311,3311
1621,515,Moorabool (S),BACCHUS MARSH,3340,3340
1622,549,Moyne (S),KOROIT,3282,3282
1623,275,Greater Geelong (C),CORIO,3214,3214
1624,111,Boroondara (C),KEW,3101,3101
1625,735,Yarra (C),FITZROY,3065,3065
1626,735,Yarra (C),FITZROY,3065,3065
1627,745,Yarra Ranges (S),LILYDALE,3140,3140
1628,433,Maribyrnong (C),FOOTSCRAY,3011,3011
1629,433,Maribyrnong (C),YARRAVILLE,3013,3013
1630,319,Horsham (RC),HORSHAM,3402,3400
1631,175,Colac-Otway (S),COLAC,3250,3250
1632,175,Colac-Otway (S),COLAC,3250,3250
1633,343,Kingston (C),MENTONE,3194,3194
1634,534,Mornington Peninsula (S),MORNINGTON,3931,3931
1635,460,Melbourne (C),SOUTH YARRA,3141,3141
1636,275,Greater Geelong (C),NEWTOWN,3220,3220
1637,283,Greater Shepparton (C),SHEPPARTON,3630,3630
1638,490,Moira (S),YARRAWONGA,3730,3730
1639,735,Yarra (C),CLIFTON HILL,3068,3068
1640,490,Moira (S),NUMURKAH,3636,3636
1641,673,Warrnambool (C),WARRNAMBOOL,3280,3280
1642,241,Glenelg (S),PORTLAND,3305,3305
1643,275,Greater Geelong (C),DRYSDALE,3222,3222
1644,275,Greater Geelong (C),GEELONG,3220,3220
1645,275,Greater Geelong (C),GEELONG WEST,3218,3218
1646,698,Whitehorse (C),BURWOOD,3125,3125
1647,506,Moonee Valley (C),MOONEE PONDS,3039,3039
1648,745,Yarra Ranges (S),LILYDALE,3140,3140
1649,571,Nillumbik (S),ELTHAM,3095,3095
1650,735,Yarra (C),COLLINGWOOD,3066,3066
1651,763,Yarriambiack (S),WARRACKNABEAL,3393,3393
1652,137,Campaspe (S),ECHUCA WEST,3564,3564
1653,111,Boroondara (C),KEW,3101,3101
1654,26,Ararat (RC),ARARAT,3377,3377
1655,137,Campaspe (S),ECHUCA,3564,3564
1656,549,Moyne (S),PORT FAIRY,3284,3284
1657,137,Campaspe (S),ROCHESTER,3561,3561
1658,460,Melbourne (C),NORTH MELBOURNE,3051,3051
1659,241,Glenelg (S),PORTLAND SOUTH,3305,3305
1660,681,Wellington (S),SALE,3850,3850
1661,137,Campaspe (S),KYABRAM,3620,3620
1662,111,Boroondara (C),SURREY HILLS,3127,3127
1663,262,Greater Bendigo (C),ELMORE,3558,3558
1664,335,Indigo (S),BEECHWORTH,3747,3747
1665,626,Southern Grampians (S),COLERAINE,3315,3315
1666,183,Corangamite (S),CAMPERDOWN,3260,3260
1667,183,Corangamite (S),CAMPERDOWN,3260,3260
1668,506,Moonee Valley (C),ESSENDON,3040,3040
1669,291,Hepburn (S),DAYLESFORD,3460,3460
1670,626,Southern Grampians (S),HAMILTON,3300,3300
1671,262,Greater Bendigo (C),BENDIGO,3550,3550
1672,111,Boroondara (C),KEW,3101,3101
1673,717,Wodonga (C),WODONGA,3690,3690
1674,581,Northern Grampians (S),STAWELL,3380,3380
1675,590,Port Phillip (C),ST KILDA,3182,3182
1676,343,Kingston (C),MENTONE,3194,3194
1677,183,Corangamite (S),TERANG,3264,3264
1678,83,Baw Baw (S),WARRAGUL,3820,3820
1679,262,Greater Bendigo (C),QUARRY HILL,3550,3550
1680,91,Bayside (C),BRIGHTON,3186,3186
1681,66,Banyule (C),HEIDELBERG,3084,3084
1682,66,Banyule (C),HEIDELBERG,3084,3084
1683,525,Moreland (C),BRUNSWICK WEST,3055,3055
1684,343,Kingston (C),MORDIALLOC,3195,3195
1685,57,Ballarat (C),BALLARAT NORTH,3350,3350
1686,57,Ballarat (C),WENDOUREE,3355,3355
1687,525,Moreland (C),BRUNSWICK EAST,3057,3057
1688,231,Glen Eira (C),GLEN HUNTLY,3163,3163
1689,267,Greater Dandenong (C),DANDENONG,3175,3175
1690,91,Bayside (C),SANDRINGHAM,3191,3191
1691,74,Bass Coast (S),WONTHAGGI,3995,3995
1692,506,Moonee Valley (C),ASCOT VALE,3032,3032
1693,225,Gannawarra (S),KERANG,3579,3579
1694,635,Stonnington (C),MALVERN,3144,3144
1695,525,Moreland (C),BRUNSWICK NORTH,3056,3056
1696,626,Southern Grampians (S),HAMILTON,3300,3300
1697,57,Ballarat (C),BALLARAT,3354,3350
1698,617,South Gippsland (S),LEONGATHA,3953,3953
1699,617,South Gippsland (S),KORUMBURRA,3950,3950
1700,311,Hobsons Bay (C),WERRIBEE,3030,3015
1701,66,Banyule (C),IVANHOE,3079,3079
1702,745,Yarra Ranges (S),HEALESVILLE,3777,3777
1703,145,Cardinia (S),NAR NAR GOON,3812,3812
1704,111,Boroondara (C),HAWTHORN,3122,3122
1705,635,Stonnington (C),MALVERN EAST,3145,3145
1706,91,Bayside (C),BRIGHTON EAST,3187,3187
1707,460,Melbourne (C),KENSINGTON,3031,3031
1708,608,Queenscliffe (B),QUEENSCLIFF,3225,3225
1709,189,Darebin (C),ALPHINGTON,3078,3078
1710,635,Stonnington (C),MALVERN,3144,3144
1711,681,Wellington (S),YARRAM,3971,3971
1712,262,Greater Bendigo (C),WHITE HILLS,3550,3550
1713,590,Port Phillip (C),ELWOOD,3184,3184
1714,413,Macedon Ranges (S),KYNETON,3444,3444
1715,441,Maroondah (C),RINGWOOD EAST,3135,3135
1716,661,Swan Hill (RC),SWAN HILL,3585,3585
1717,534,Mornington Peninsula (S),MT ELIZA,3930,3930
1718,534,Mornington Peninsula (S),HASTINGS,3915,3915
1719,175,Colac-Otway (S),CORAGULAC,3249,3249
1720,118,Brimbank (C),SUNSHINE,3020,3020
1721,189,Darebin (C),THORNBURY,3071,3071
1722,673,Warrnambool (C),DENNINGTON,3280,3280
1723,635,Stonnington (C),TOORAK,3142,3142
1724,506,Moonee Valley (C),ESSENDON,3040,3040
1725,319,Horsham (RC),HORSHAM,3402,3400
1726,231,Glen Eira (C),CAULFIELD,3161,3161
1727,91,Bayside (C),BRIGHTON,3186,3186
1728,643,Strathbogie (S),EUROA,3666,3666
1729,506,Moonee Valley (C),NIDDRIE,3042,3033
1730,433,Maribyrnong (C),FOOTSCRAY,3011,3011
1731,490,Moira (S),COBRAM,3644,3644
1732,231,Glen Eira (C),CAULFIELD,3161,3161
1733,66,Banyule (C),IVANHOE,3079,3079
1734,643,Strathbogie (S),NAGAMBIE,3608,3608
1735,635,Stonnington (C),PRAHRAN EAST,3181,3181
1736,211,East Gippsland (S),ORBOST,3888,3888
1737,343,Kingston (C),MENTONE,3194,3194
1738,66,Banyule (C),IVANHOE,3079,3079
1739,11,Alpine (S),MYRTLEFORD,3737,3737
1740,111,Boroondara (C),KEW,3101,3101
1741,231,Glen Eira (C),ORMOND,3204,3204
1742,267,Greater Dandenong (C),KEYSBOROUGH,3173,3173
1743,506,Moonee Valley (C),ESSENDON,3040,3040
1744,562,Murrindindi (S),YEA,3717,3717
1745,111,Boroondara (C),DEEPDENE,3103,3103
1746,111,Boroondara (C),CANTERBURY,3126,3126
1747,231,Glen Eira (C),ORMOND,3204,3204
1748,343,Kingston (C),MENTONE,3194,3194
1749,343,Kingston (C),CHELSEA,3196,3196
1750,681,Wellington (S),SALE,3853,3850
1751,91,Bayside (C),BRIGHTON EAST,3187,3187
1752,635,Stonnington (C),TOORAK,3142,3142
1753,111,Boroondara (C),CAMBERWELL EAST,3124,3124
1754,91,Bayside (C),HAMPTON,3188,3188
1755,262,Greater Bendigo (C),HEATHCOTE,3523,3523
1756,225,Gannawarra (S),COHUNA,3568,3568
1757,111,Boroondara (C),BALWYN,3103,3126
1758,534,Mornington Peninsula (S),CRIB POINT,3919,3919
1759,91,Bayside (C),BRIGHTON,3186,3186
1760,525,Moreland (C),MORELAND,3058,3058
1761,497,Monash (C),MOUNT WAVERLEY,3149,3149
1762,698,Whitehorse (C),BOX HILL,3128,3128
1763,311,Hobsons Bay (C),ALTONA,3018,3018
1764,571,Nillumbik (S),ELTHAM,3095,3095
1765,478,Mildura (RC),MERBEIN,3505,3505
1766,217,Frankston (C),FRANKSTON SOUTH,3199,3199
1767,698,Whitehorse (C),KERRIMUIR,3129,3128
1768,189,Darebin (C),RESERVOIR,3073,3073
1769,231,Glen Eira (C),BENTLEIGH,3204,3204
1770,91,Bayside (C),BLACK ROCK,3193,3193
1771,327,Hume (C),SUNBURY,3429,3429
1772,681,Wellington (S),STRATFORD,3862,3862
1773,698,Whitehorse (C),BOX HILL,3128,3128
1774,83,Baw Baw (S),TRAFALGAR,3824,3824
1775,231,Glen Eira (C),MURRUMBEENA,3163,3163
1776,635,Stonnington (C),GLEN IRIS,3146,3146
1777,161,Casey (C),BERWICK,3806,3806
1778,111,Boroondara (C),CANTERBURY,3126,3126
1779,111,Boroondara (C),KEW EAST,3102,3102
1780,441,Maroondah (C),RINGWOOD,3134,3134
1781,66,Banyule (C),MONTMORENCY,3094,3094
1782,534,Mornington Peninsula (S),SORRENTO,3943,3943
1783,111,Boroondara (C),GLEN IRIS,3146,3146
1784,231,Glen Eira (C),ELSTERNWICK,3185,3185
1785,478,Mildura (RC),RED CLIFFS,3496,3496
1786,111,Boroondara (C),BALWYN,3103,3101
1787,707,Whittlesea (C),EPPING,3076,3076
1788,189,Darebin (C),NORTHCOTE,3070,3070
1789,497,Monash (C),OAKLEIGH,3166,3166
1790,525,Moreland (C),FAWKNER,3060,3060
1791,367,Knox (C),FERNTREE GULLY,3156,3156
1792,698,Whitehorse (C),MITCHAM,3132,3132
1793,283,Greater Shepparton (C),MOOROOPNA,3629,3629
1794,189,Darebin (C),PRESTON WEST,3072,3072
1795,635,Stonnington (C),TOORAK,3142,3142
1796,145,Cardinia (S),KOO WEE RUP,3981,3981
1797,506,Moonee Valley (C),STRATHMORE,3041,3041
1798,275,Greater Geelong (C),NEWTOWN,3220,3220
1799,267,Greater Dandenong (C),SPRINGVALE,3171,3171
1800,343,Kingston (C),MENTONE,3194,3194
1801,189,Darebin (C),PRESTON EAST,3073,3073
1802,111,Boroondara (C),CAMBERWELL,3124,3124
1803,525,Moreland (C),COBURG EAST,3058,3058
1804,698,Whitehorse (C),BURWOOD,3125,3125
1805,525,Moreland (C),PASCOE VALE,3044,3044
1806,433,Maribyrnong (C),KINGSVILLE,3012,3012
1807,275,Greater Geelong (C),NEWTOWN,3220,3220
1808,506,Moonee Valley (C),ESSENDON,3040,3040
1809,421,Manningham (C),DONVALE,3111,3111
1810,111,Boroondara (C),ASHBURTON,3147,3147
1811,515,Moorabool (S),CLARKES HILL,3352,3352
1812,231,Glen Eira (C),BENTLEIGH,3204,3204
1813,111,Boroondara (C),BALWYN NORTH,3104,3104
1814,497,Monash (C),CHADSTONE,3148,3148
1815,298,Hindmarsh (S),NHILL,3418,3418
1816,275,Greater Geelong (C),GEELONG EAST,3219,3219
1817,698,Whitehorse (C),BURWOOD,3125,3125
1818,381,Latrobe (C),MOE,3825,3825
1819,421,Manningham (C),BULLEEN,3105,3105
1820,83,Baw Baw (S),WARRAGUL,3820,3820
1821,478,Mildura (RC),IRYMPLE,3498,3498
1822,118,Brimbank (C),ALBION,3020,3020
1823,66,Banyule (C),IVANHOE NORTH,3079,3079
1824,549,Moyne (S),MORTLAKE,3272,3272
1825,91,Bayside (C),HIGHETT,3190,3190
1826,343,Kingston (C),CHELTENHAM,3192,3192
1827,698,Whitehorse (C),NUNAWADING,3131,3131
1828,441,Maroondah (C),CROYDON,3136,3136
1829,689,West Wimmera (S),EDENHOPE,3318,3318
1830,161,Casey (C),BERWICK,3806,3805
1831,562,Murrindindi (S),ALEXANDRA,3714,3714
1832,506,Moonee Valley (C),ESSENDON,3040,3040
1833,231,Glen Eira (C),ELSTERNWICK,3185,3185
1834,189,Darebin (C),THORNBURY EAST,3071,3071
1835,118,Brimbank (C),ST ALBANS,3021,3021
1836,698,Whitehorse (C),BLACKBURN,3130,3130
1837,137,Campaspe (S),RUSHWORTH,3612,3612
1838,681,Wellington (S),HEYFIELD,3858,3858
1839,275,Greater Geelong (C),NORTH GEELONG,3215,3214
1840,66,Banyule (C),HEIDELBERG WEST,3081,3081
1841,311,Hobsons Bay (C),SPOTSWOOD,3015,3015
1842,626,Southern Grampians (S),HAMILTON,3300,3300
1843,497,Monash (C),CHADSTONE,3148,3148
1844,267,Greater Dandenong (C),NOBLE PARK,3174,3174
1845,497,Monash (C),CLAYTON,3168,3168
1846,763,Yarriambiack (S),HOPETOUN,3396,3396
1847,231,Glen Eira (C),ST KILDA EAST,3183,3183
1848,506,Moonee Valley (C),NIDDRIE,3042,3042
1849,275,Greater Geelong (C),GEELONG NORTH,3215,3215
1850,275,Greater Geelong (C),MANIFOLD HEIGHTS,3218,3218
1851,66,Banyule (C),GREENSBOROUGH,3088,3088
1852,118,Brimbank (C),ARDEER,3022,3022
1853,118,Brimbank (C),DEER PARK,3023,3023
1854,433,Maribyrnong (C),BRAYBROOK,3019,3019
1855,525,Moreland (C),GLENROY,3046,3046
1856,267,Greater Dandenong (C),SPRINGVALE,3171,3171
1857,118,Brimbank (C),SUNSHINE WEST,3020,3020
1858,394,Loddon (S),PYRAMID HILL,3575,3575
1859,275,Greater Geelong (C),HERNE HILL,3218,3218
1860,91,Bayside (C),BEAUMARIS,3193,3193
1861,262,Greater Bendigo (C),KENNINGTON,3550,3550
1862,118,Brimbank (C),SUNSHINE NORTH,3020,3020
1863,57,Ballarat (C),SEBASTOPOL,3356,3356
1864,111,Boroondara (C),HAWTHORN,3122,3122
1865,478,Mildura (RC),MILDURA,3502,3500
1866,231,Glen Eira (C),ST KILDA EAST,3183,3183
1867,433,Maribyrnong (C),MARIBYRNONG,3032,3032
1868,381,Latrobe (C),NEWBOROUGH,3825,3825
1869,497,Monash (C),MOUNT WAVERLEY,3149,3149
1870,267,Greater Dandenong (C),DANDENONG NORTH,3175,3175
1871,283,Greater Shepparton (C),SHEPPARTON SOUTH,3630,3630
1872,698,Whitehorse (C),SURREY HILLS,3127,3127
1873,343,Kingston (C),MOORABBIN,3189,3189
1874,497,Monash (C),OAKLEIGH,3166,3166
1875,381,Latrobe (C),MORWELL EAST,3840,3840
1876,298,Hindmarsh (S),DIMBOOLA,3414,3414
1877,127,Buloke (S),SEA LAKE,3533,3533
1878,745,Yarra Ranges (S),YARRA JUNCTION,3797,3797
1879,189,Darebin (C),RESERVOIR EAST,3073,3073
1880,211,East Gippsland (S),LAKES ENTRANCE,3909,3909
1881,66,Banyule (C),ROSANNA,3084,3084
1882,667,Towong (S),TALLANGATTA,3700,3700
1883,497,Monash (C),OAKLEIGH EAST,3166,3166
1884,506,Moonee Valley (C),ABERFELDIE,3040,3040
1885,267,Greater Dandenong (C),DANDENONG,3175,3175
1886,211,East Gippsland (S),BAIRNSDALE,3875,3875
1887,661,Swan Hill (RC),ROBINVALE,3549,3549
1888,670,Wangaratta (RC),WANGARATTA,3676,3677
1889,698,Whitehorse (C),VERMONT SOUTH,3133,3133
1890,327,Hume (C),BROADMEADOWS,3047,3047
1891,137,Campaspe (S),TONGALA,3621,3621
1892,111,Boroondara (C),BALWYN NORTH,3104,3104
1893,497,Monash (C),GLEN WAVERLEY,3150,3150
1894,698,Whitehorse (C),BENNETTSWOOD,3125,3125
1895,497,Monash (C),GLEN WAVERLEY,3150,3150
1896,343,Kingston (C),PARKDALE EAST,3195,3195
1897,421,Manningham (C),DONCASTER EAST,3109,3109
1898,490,Moira (S),NATHALIA,3638,3638
1899,161,Casey (C),DOVETON,3177,3177
1900,441,Maroondah (C),RINGWOOD,3134,3134
1901,231,Glen Eira (C),CAULFIELD SOUTH,3162,3185
1902,534,Mornington Peninsula (S),MT ELIZA,3930,3930
1903,525,Moreland (C),FAWKNER NORTH,3060,3060
1904,497,Monash (C),MULGRAVE,3170,3170
1905,707,Whittlesea (C),LALOR,3075,3075
1906,525,Moreland (C),OAK PARK,3046,3046
1907,275,Greater Geelong (C),GEELONG,3220,3220
1908,745,Yarra Ranges (S),BELGRAVE,3160,3160
1909,673,Warrnambool (C),WARRNAMBOOL WEST,3280,3280
1910,506,Moonee Valley (C),AIRPORT WEST,3042,3042
1911,175,Colac-Otway (S),ELIMINYT,3250,3250
1912,571,Nillumbik (S),DIAMOND CREEK,3089,3089
1913,161,Casey (C),BERWICK,3806,3806
1914,506,Moonee Valley (C),ABERFELDIE,3040,3040
1915,111,Boroondara (C),HAWTHORN,3122,3122
1916,189,Darebin (C),KINGSBURY,3083,3083
1917,698,Whitehorse (C),BLACKBURN SOUTH,3130,3130
1918,670,Wangaratta (RC),WANGARATTA,3677,3677
1919,763,Yarriambiack (S),MURTOA,3390,3390
1920,441,Maroondah (C),CROYDON HILLS,3136,3136
1921,118,Brimbank (C),SUNSHINE WEST,3020,3020
1922,311,Hobsons Bay (C),ALTONA NORTH,3025,3018
1923,57,Ballarat (C),WENDOUREE,3355,3355
1924,421,Manningham (C),BULLEEN,3105,3105
1925,367,Knox (C),BORONIA,3155,3155
1926,667,Towong (S),CORRYONG,3707,3707
1927,745,Yarra Ranges (S),BELGRAVE,3160,3160
1928,367,Knox (C),BAYSWATER,3153,3153
1929,367,Knox (C),FERNTREE GULLY,3156,3156
1930,111,Boroondara (C),KEW,3101,3101
1931,311,Hobsons Bay (C),ALTONA NORTH,3025,3012
1932,343,Kingston (C),ASPENDALE,3195,3195
1933,525,Moreland (C),HADFIELD,3046,3046
1934,497,Monash (C),MOUNT WAVERLEY,3149,3149
1935,698,Whitehorse (C),BLACKBURN NORTH,3130,3130
1936,327,Hume (C),DALLAS,3047,3047
1937,311,Hobsons Bay (C),ALTONA NORTH,3025,3025
1938,745,Yarra Ranges (S),MOOROOLBARK,3138,3138
1939,707,Whittlesea (C),BUNDOORA,3083,3083
1940,707,Whittlesea (C),EPPING,3076,3076
1941,441,Maroondah (C),RINGWOOD,3134,3134
1942,275,Greater Geelong (C),NEWCOMB,3219,3219
1943,525,Moreland (C),COBURG,3058,3058
1944,698,Whitehorse (C),VERMONT,3133,3133
1945,681,Wellington (S),MAFFRA,3860,3860
1946,534,Mornington Peninsula (S),MORNINGTON,3931,3931
1947,217,Frankston (C),FRANKSTON EAST,3199,3199
1948,367,Knox (C),WANTIRNA SOUTH,3152,3152
1949,217,Frankston (C),FRANKSTON EAST,3199,3199
1950,217,Frankston (C),SEAFORD,3198,3198
1951,497,Monash (C),MULGRAVE,3170,3170
1952,506,Moonee Valley (C),AVONDALE HEIGHTS,3034,3034
1953,421,Manningham (C),DONCASTER,3108,3108
1954,161,Casey (C),ENDEAVOUR HILLS,3802,3802
1955,421,Manningham (C),TEMPLESTOWE,3106,3107
1956,698,Whitehorse (C),VERMONT,3133,3133
1957,497,Monash (C),WHEELERS HILL,3150,3150
1958,726,Wyndham (C),WERRIBEE,3030,3030
1959,231,Glen Eira (C),BENTLEIGH EAST,3165,3165
1960,681,Wellington (S),SALE,3850,3850
1961,311,Hobsons Bay (C),ALTONA NORTH,3025,3025
1962,506,Moonee Valley (C),KEILOR EAST,3033,3033
1963,673,Warrnambool (C),WARRNAMBOOL EAST,3280,3280
1964,11,Alpine (S),MYRTLEFORD,3737,3737
1965,311,Hobsons Bay (C),LAVERTON,3028,3028
1966,367,Knox (C),SCORESBY,3179,3179
1967,717,Wodonga (C),WODONGA WEST,3690,3690
1968,745,Yarra Ranges (S),MOUNT EVELYN,3796,3796
1969,441,Maroondah (C),WARRANWOOD,3134,3134
1970,262,Greater Bendigo (C),BENDIGO NORTH,3550,3550
1971,343,Kingston (C),DINGLEY,3172,3172
1972,635,Stonnington (C),DARLING SOUTH,3145,3145
1973,698,Whitehorse (C),NUNAWADING,3131,3131
1974,571,Nillumbik (S),ELTHAM,3095,3095
1975,118,Brimbank (C),ST ALBANS SOUTH,3021,3021
1976,478,Mildura (RC),MILDURA,3502,3500
1977,571,Nillumbik (S),HURSTBRIDGE,3099,3099
1978,726,Wyndham (C),HOPPERS CROSSING,3029,3029
1979,421,Manningham (C),DONVALE,3111,3111
1980,698,Whitehorse (C),KERRIMUIR,3129,3129
1981,231,Glen Eira (C),ELSTERNWICK,3185,3185
1982,707,Whittlesea (C),THOMASTOWN EAST,3074,3074
1983,413,Macedon Ranges (S),WOODEND,3442,3442
1984,327,Hume (C),GLADSTONE PARK,3043,3043
1985,161,Casey (C),CRANBOURNE,3977,3977
1986,267,Greater Dandenong (C),KEYSBOROUGH,3173,3173
1987,465,Melton (C),MELTON,3337,3337
1988,275,Greater Geelong (C),CORIO,3214,3214
1989,465,Melton (C),TAYLORS HILL,3037,3037
1990,497,Monash (C),MULGRAVE,3170,3150
1991,670,Wangaratta (RC),WANGARATTA,3676,3677
1992,441,Maroondah (C),RINGWOOD NORTH,3134,3134
1993,381,Latrobe (C),CHURCHILL,3842,3842
1994,698,Whitehorse (C),VERMONT SOUTH,3133,3133
1995,707,Whittlesea (C),THOMASTOWN WEST,3074,3074
1996,298,Hindmarsh (S),NHILL,3418,3418
1997,327,Hume (C),SUNBURY,3429,3429
1998,421,Manningham (C),DONVALE,3111,3111
1999,217,Frankston (C),LANGWARRIN,3910,3910
2000,118,Brimbank (C),KEALBA,3021,3021
2001,267,Greater Dandenong (C),DANDENONG NORTH,3175,3175
2002,189,Darebin (C),RESERVOIR NORTH,3073,3073
2003,118,Brimbank (C),KINGS PARK,3021,3021
2004,118,Brimbank (C),ST ALBANS,3021,3021
2005,145,Cardinia (S),BEACONSFIELD,3807,3807
2006,319,Horsham (RC),HORSHAM,3402,3400
2007,66,Banyule (C),ST HELENA,3088,3088
2008,367,Knox (C),VERMONT,3133,3152
2009,635,Stonnington (C),MALVERN,3144,3143
2010,726,Wyndham (C),WERRIBEE,3030,3029
2011,275,Greater Geelong (C),GROVEDALE,3216,3216
2012,118,Brimbank (C),KEILOR,3036,3036
2013,465,Melton (C),MELTON SOUTH,3338,3338
2014,571,Nillumbik (S),GREENSBOROUGH NORTH,3088,3088
2015,367,Knox (C),WANTIRNA,3152,3152
2016,118,Brimbank (C),SUNSHINE SOUTH WEST,3020,3020
2017,707,Whittlesea (C),BUNDOORA,3083,3083
2018,189,Darebin (C),PRESTON,3072,3072
2019,441,Maroondah (C),CROYDON HILLS,3136,3136
2020,745,Yarra Ranges (S),LILYDALE,3140,3116
2021,543,Mount Alexander (S),CAMPBELLS CREEK,3451,3451
2022,275,Greater Geelong (C),GEELONG,3221,3215
2023,745,Yarra Ranges (S),MONBULK,3793,3793
2024,717,Wodonga (C),WODONGA,3689,3690
2025,433,Maribyrnong (C),BRAYBROOK,3019,3019
2026,57,Ballarat (C),BALLARAT WEST,3350,3350
2027,745,Yarra Ranges (S),MOUNT EVELYN,3796,3796
2028,421,Manningham (C),PARK ORCHARDS,3114,3114
2029,381,Latrobe (C),TRARALGON WEST,3844,3844
2030,327,Hume (C),CRAIGIEBURN,3064,3064
2031,217,Frankston (C),FRANKSTON SOUTH,3199,3199
2032,707,Whittlesea (C),MILL PARK,3082,3082
2033,66,Banyule (C),WATSONIA,3087,3087
2034,465,Melton (C),MELTON,3337,3337
2035,74,Bass Coast (S),NEWHAVEN,3925,3922
2036,241,Glenelg (S),PORTLAND,3305,3305
2037,275,Greater Geelong (C),HIGHTON,3216,3216
2038,745,Yarra Ranges (S),MOOROOLBARK,3138,3138
2039,735,Yarra (C),FITZROY NORTH,3068,3068
2040,161,Casey (C),ENDEAVOUR HILLS,3802,3802
2041,343,Kingston (C),CLAYTON SOUTH,3169,3169
2042,534,Mornington Peninsula (S),MOUNT ELIZA,3930,3930
2043,490,Moira (S),NATHALIA,3638,3638
2044,262,Greater Bendigo (C),BENDIGO,3550,3550
2045,626,Southern Grampians (S),HAMILTON,3300,3300
2046,571,Nillumbik (S),DOREEN,3754,3754
2047,726,Wyndham (C),HOPPERS CROSSING NORTH,3029,3029
2048,367,Knox (C),ROWVILLE,3178,3178
2049,311,Hobsons Bay (C),ALTONA MEADOWS,3028,3028
2050,161,Casey (C),NARRE WARREN,3805,3805
2051,275,Greater Geelong (C),OCEAN GROVE,3226,3226
2052,118,Brimbank (C),SYDENHAM,3037,3037
2053,118,Brimbank (C),TAYLORS LAKES,3038,3036
2054,441,Maroondah (C),WONGA PARK,3115,3136
2055,217,Frankston (C),FRANKSTON,3199,3911
2056,111,Boroondara (C),KEW,3101,3101
2057,478,Mildura (RC),MILDURA,3500,3500
2058,283,Greater Shepparton (C),SHEPPARTON,3632,3630
2059,367,Knox (C),WANTIRNA SOUTH,3152,3152
2060,726,Wyndham (C),WERRIBEE,3030,3030
2061,161,Casey (C),CLYDE NORTH,3978,3978
2062,83,Baw Baw (S),WARRAGUL,3820,3820
2063,118,Brimbank (C),SUNSHINE,3020,3020
2064,497,Monash (C),ASHWOOD,3147,3147
2065,145,Cardinia (S),PAKENHAM,3810,3810
2066,745,Yarra Ranges (S),KILSYTH,3137,3137
2067,367,Knox (C),THE BASIN,3154,3154
2068,707,Whittlesea (C),LALOR WEST,3075,3075
2069,275,Greater Geelong (C),LARA,3212,3212
2070,707,Whittlesea (C),WHITTLESEA,3757,3757
2071,421,Manningham (C),TEMPLESTOWE,3106,3106
2072,137,Campaspe (S),ECHUCA,3564,3564
2073,745,Yarra Ranges (S),BELGRAVE HEIGHTS,3160,3160
2074,497,Monash (C),OAKLEIGH,3166,3166
2075,745,Yarra Ranges (S),HEALESVILLE,3777,3777
2076,225,Gannawarra (S),KERANG,3579,3579
2077,367,Knox (C),KNOX CITY CENTRE,3152,3152
2078,83,Baw Baw (S),DROUIN,3818,3818
2079,525,Moreland (C),COBURG,3058,3058
2080,534,Mornington Peninsula (S),TYABB,3913,3913
2081,118,Brimbank (C),KEILOR DOWNS,3038,3038
2082,465,Melton (C),MELTON WEST,3337,3337
2083,745,Yarra Ranges (S),MONBULK,3793,3793
2084,534,Mornington Peninsula (S),ROSEBUD,3939,3939
2085,497,Monash (C),WHEELERS HILL,3150,3150
2086,717,Wodonga (C),LENEVA,3691,3691
2087,745,Yarra Ranges (S),KILSYTH,3137,3137
2088,367,Knox (C),WANTIRNA SOUTH,3152,3152
2089,465,Melton (C),MELTON,3337,3338
2090,425,Mansfield (S),MANSFIELD,3724,3722
2091,161,Casey (C),ENDEAVOUR HILLS,3802,3802
2092,726,Wyndham (C),WERRIBEE,3030,3030
2093,267,Greater Dandenong (C),NOBLE PARK NORTH,3174,3174
2094,649,Surf Coast (S),TORQUAY,3228,3228
2095,231,Glen Eira (C),CAULFIELD SOUTH,3162,3162
2096,617,South Gippsland (S),LEONGATHA,3953,3953
2097,673,Warrnambool (C),WARRNAMBOOL,3280,3280
2098,735,Yarra (C),ABBOTSFORD,3067,3067
2099,726,Wyndham (C),HOPPERS CROSSING,3029,3029
2100,118,Brimbank (C),KEILOR,3036,3036
2101,217,Frankston (C),CARRUM DOWNS,3201,3201
2102,66,Banyule (C),ELTHAM NORTH,3095,3095
2103,327,Hume (C),GREENVALE,3059,3059
2104,745,Yarra Ranges (S),YARRA JUNCTION,3797,3797
2105,661,Swan Hill (RC),SWAN HILL,3585,3585
2106,161,Casey (C),HAMPTON PARK,3976,3976
2107,515,Moorabool (S),BACCHUS MARSH,3340,3340
2108,161,Casey (C),CRANBOURNE,3977,3977
2109,267,Greater Dandenong (C),KEYSBOROUGH,3173,3173
2110,735,Yarra (C),ALPHINGTON,3078,3078
2111,161,Casey (C),CRANBOURNE,3977,3977
2112,83,Baw Baw (S),DROUIN,3818,3818
2113,745,Yarra Ranges (S),MOOROOLBARK,3138,3138
2114,57,Ballarat (C),DELACOMBE,3356,3356
2115,543,Mount Alexander (S),CASTLEMAINE,3450,3451
2116,485,Mitchell (S),KILMORE,3764,3764
2117,327,Hume (C),DALLAS,3048,3048
2118,425,Mansfield (S),MANSFIELD,3724,3722
2119,267,Greater Dandenong (C),SPRINGVALE,3171,3171
2120,717,Wodonga (C),WODONGA WEST,3689,3690
2121,661,Swan Hill (RC),SWAN HILL,3585,3585
2122,262,Greater Bendigo (C),BENDIGO,3550,3550
2123,262,Greater Bendigo (C),STRATHFIELDSAYE,3551,3551
2124,590,Port Phillip (C),SOUTH MELBOURNE,3205,3205
2125,161,Casey (C),CRANBOURNE EAST,3977,3977
2126,534,Mornington Peninsula (S),SOMERVILLE,3912,3912
2127,161,Casey (C),NARRE WARREN NORTH,3804,3804
2128,726,Wyndham (C),WERRIBEE NORTH,3030,3030
2129,262,Greater Bendigo (C),STRATHDALE,3550,3550
2130,327,Hume (C),DALLAS,3047,3047
2131,327,Hume (C),GLENROY,3046,3047
2132,275,Greater Geelong (C),BELMONT,3216,3222
2133,327,Hume (C),SOMERTON,3062,3064
2134,111,Boroondara (C),HAWTHORN,3122,3122
2135,275,Greater Geelong (C),GEELONG,3215,3215
2136,413,Macedon Ranges (S),NEW GISBORNE,3438,3438
2137,161,Casey (C),BERWICK,3806,3806
2138,726,Wyndham (C),WERRIBEE,3030,3029
2139,327,Hume (C),DALLAS,3047,3047
2140,118,Brimbank (C),SYDENHAM,3037,3037
2141,327,Hume (C),SUNBURY,3429,3429
2142,189,Darebin (C),BUNDOORA,3083,3073
2143,726,Wyndham (C),TARNEIT,3029,3029
2144,275,Greater Geelong (C),DRYSDALE,3222,3222
2145,283,Greater Shepparton (C),SHEPPARTON,3630,3630
2146,525,Moreland (C),FAWKNER,3060,3060
2147,145,Cardinia (S),TYNONG,3813,3813
2148,211,East Gippsland (S),BAIRNSDALE,3875,3875
2149,189,Darebin (C),EAST PRESTON,3072,3072
2150,275,Greater Geelong (C),BELMONT,3216,3216
2151,145,Cardinia (S),EMERALD,3782,3782
2152,327,Hume (C),GREENVALE,3059,3059
2153,111,Boroondara (C),HAWTHORN EAST,3123,3123
2154,57,Ballarat (C),BUNINYONG,3357,3350
2155,275,Greater Geelong (C),BELMONT,3216,3216
2156,465,Melton (C),CAROLINE SPRINGS,3023,3023
2157,649,Surf Coast (S),FRESHWATER CREEK,3216,3216
2158,413,Macedon Ranges (S),GISBORNE,3437,3438
2159,267,Greater Dandenong (C),KEYSBOROUGH,3173,3173
2160,726,Wyndham (C),POINT COOK,3030,3030
2161,161,Casey (C),NARRE WARREN,3805,3805
2162,145,Cardinia (S),BUNYIP,3815,3815
2163,460,Melbourne (C),MELBOURNE,3000,3000
2164,571,Nillumbik (S),CAMPBELLFIELD,3061,3091
2165,635,Stonnington (C),SOUTH YARRA,3141,3141
2166,275,Greater Geelong (C),LOVELY BANKS,3221,3221
2167,381,Latrobe (C),TRARALGON,3844,3844
2168,478,Mildura (RC),IRYMPLE,3498,3498
2169,267,Greater Dandenong (C),KEYSBOROUGH,3173,3173
2170,525,Moreland (C),MORELAND,3058,3044
2171,460,Melbourne (C),MELBOURNE,3000,3000
2172,267,Greater Dandenong (C),RICHMOND,3121,3174
2173,590,Port Phillip (C),ELWOOD,3184,3184
2174,465,Melton (C),HILLSIDE,3037,3037
2175,460,Melbourne (C),MELBOURNE,3000,3000
2176,283,Greater Shepparton (C),SHEPPARTON NORTH,3631,3631
2177,717,Wodonga (C),WODONGA,3689,3691
2178,717,Wodonga (C),WODONGA,3689,3690
2179,707,Whittlesea (C),SOUTH MORANG,3752,3752
2180,726,Wyndham (C),POINT COOK WEST,3030,3030
2181,145,Cardinia (S),PAKENHAM,3810,3810
2182,735,Yarra (C),RICHMOND NORTH,3121,3121
2183,262,Greater Bendigo (C),BENDIGO,3550,3550
2184,335,Indigo (S),BEECHWORTH,3747,3747
2185,534,Mornington Peninsula (S),MT MARTHA,3934,3934
2186,465,Melton (C),CAROLINE SPRINGS,3023,3023
2187,57,Ballarat (C),SEBASTOPOL,3356,3356
2188,735,Yarra (C),NORTH FITZROY,3068,3068
2189,57,Ballarat (C),MOUNT CLEAR,3350,3350
2190,101,Benalla (RC),BENALLA,3672,3672
2191,327,Hume (C),CRAIGIEBURN,3064,3059
2192,327,Hume (C),CRAIGIEBURN,3064,3064
2193,161,Casey (C),CRANBOURNE,3977,3977
2194,327,Hume (C),CRAIGIEBURN,3064,3064
2195,275,Greater Geelong (C),GEELONG,3220,3217
2196,726,Wyndham (C),WERRIBEE,3030,3024
2197,291,Hepburn (S),DAYLESFORD,3461,3461
2198,465,Melton (C),CAROLINE SPRINGS,3023,3023
2199,707,Whittlesea (C),MERNDA,3754,3754
2200,707,Whittlesea (C),EPPING,3076,3076
2201,83,Baw Baw (S),WARRAGUL,3820,3820
2202,670,Wangaratta (RC),WANGARATTA,3676,3676
2203,217,Frankston (C),LANGWARRIN SOUTH,3911,3911
2204,283,Greater Shepparton (C),SHEPPARTON,3630,3630
2205,145,Cardinia (S),OFFICER,3809,3809
2206,161,Casey (C),LYNBROOK,3975,3975
2207,118,Brimbank (C),DERRIMUT,3030,3030
2208,367,Knox (C),BORONIA,3155,3154
2209,460,Melbourne (C),MELBOURNE,3004,3004
2210,726,Wyndham (C),TARNEIT,3029,3029
2211,465,Melton (C),CAROLINE SPRINGS,3023,3023
2212,275,Greater Geelong (C),WHITTINGTON,3219,3219
2213,267,Greater Dandenong (C),BANGHOLME,3175,3175
2214,231,Glen Eira (C),CAULFIELD SOUTH,3162,3162
2215,726,Wyndham (C),TARNEIT,3029,3029
2216,460,Melbourne (C),NORTH MELBOURNE,3051,3051
2217,525,Moreland (C),GLENROY,3046,3046
2218,670,Wangaratta (RC),WANGARATTA,3676,3676
2219,617,South Gippsland (S),KOONWARRA,3954,3954
2220,231,Glen Eira (C),ELSTERNWICK,3185,3204
2221,211,East Gippsland (S),BAIRNSDALE,3875,3875
2222,161,Casey (C),BERWICK,3806,3806
2223,101,Benalla (RC),BENALLA,3672,3672
2224,707,Whittlesea (C),EPPING NORTH,3076,3076
2225,726,Wyndham (C),POINT COOK,3030,3030
2226,161,Casey (C),CLYDE,3978,3977
2227,745,Yarra Ranges (S),YARRA JUNCTION,3797,3797
2228,717,Wodonga (C),BARANDUDA,3691,3691
2229,726,Wyndham (C),WERRIBEE PLAZA,3030,3029
2230,726,Wyndham (C),TRUGANINA SOUTH,3029,3029
2231,145,Cardinia (S),OFFICER,3809,3809
2232,707,Whittlesea (C),DOREEN,3754,3754
2233,490,Moira (S),COBRAM,3644,3644
2234,262,Greater Bendigo (C),MAIDEN GULLY,3551,3551
2235,343,Kingston (C),CLARINDA,3169,3169
2236,460,Melbourne (C),RICHMOND,3121,3121
2237,413,Macedon Ranges (S),ROMSEY,3434,3440
2238,267,Greater Dandenong (C),SPRINGVALE SOUTH,3172,3172
2239,465,Melton (C),MELTON SOUTH,3338,3338
2240,745,Yarra Ranges (S),LILYDALE,3140,3140
2241,111,Boroondara (C),KEW,3101,3101
2242,161,Casey (C),NARRE WARREN NORTH,3804,3804
2243,311,Hobsons Bay (C),WILLIAMSTOWN,3016,3016
2244,74,Bass Coast (S),KOONWARRA,3954,3922
2245,534,Mornington Peninsula (S),ROSEBUD WEST,3939,3939
2246,189,Darebin (C),RESERVOIR,3073,3073
2247,460,Melbourne (C),NORTH MELBOURNE,3051,3051
2248,217,Frankston (C),FITZROY,3065,3065
2249,590,Port Phillip (C),SOUTH MELBOURNE,3205,3205
2250,111,Boroondara (C),HAWTHORN EAST,3123,3123
2251,57,Ballarat (C),ALFREDTON,3350,3350
2252,590,Port Phillip (C),SOUTH YARRA,3141,3182
2253,327,Hume (C),MOUNT RIDLEY,3064,3064
2254,249,Golden Plains (S),BANNOCKBURN,3331,3331
2255,485,Mitchell (S),KILMORE,3764,3764
2256,649,Surf Coast (S),TORQUAY NORTH,3228,3228
2257,74,Bass Coast (S),COWES,3922,3922
